{"type":"FeatureCollection", "features": [
{"type":"Feature","geometry":{"type":"Polygon","coordinates":[[[-97.229,49.0007],[-97.2279,48.9459],[-97.1,48.6679],[-97.1491,48.5323],[-97.1295,48.2578],[-97.1467,48.1686],[-96.9964,47.8444],[-96.8541,47.572],[-96.8575,47.4405],[-96.8191,47.0812],[-96.8335,47.0101],[-96.764,46.9125],[-96.7905,46.6369],[-96.7091,46.4353],[-96.601,46.3196],[-96.5545,46.084],[-96.5637,45.9352],[-96.5871,45.8164],[-96.6727,45.7323],[-96.8262,45.6542],[-96.844,45.594],[-96.7108,45.4369],[-96.5218,45.3756],[-96.4578,45.3076],[-96.4533,44.5436],[-96.4533,43.5004],[-95.8344,43.5],[-94.8546,43.5006],[-93.9708,43.4996],[-93.2289,43.4996],[-92.4489,43.5004],[-91.2177,43.5005],[-91.2733,43.6666],[-91.244,43.773],[-91.291,43.8527],[-91.4405,44.0015],[-91.5733,44.0269],[-91.8927,44.2311],[-91.9636,44.3621],[-92.2325,44.4454],[-92.3141,44.538],[-92.5493,44.5777],[-92.8053,44.7684],[-92.7508,44.9416],[-92.8029,45.0654],[-92.7405,45.1134],[-92.7619,45.2849],[-92.6468,45.4379],[-92.7569,45.5575],[-92.8811,45.5734],[-92.8697,45.7151],[-92.7211,45.8838],[-92.5457,45.9701],[-92.3518,46.0157],[-92.294,46.0744],[-92.2922,46.6632],[-92.2055,46.6647],[-92.1433,46.7316],[-92.0153,46.7065],[-92.0621,46.804],[-91.6446,47.0265],[-91.457,47.1392],[-91.147,47.3815],[-90.8683,47.5569],[-90.5371,47.7031],[-89.9743,47.8305],[-89.6606,47.9512],[-89.7493,48.0233],[-89.8682,47.9899],[-89.9734,48.0204],[-90.0296,48.0876],[-90.1362,48.1121],[-90.7037,48.096],[-90.776,48.1222],[-90.8436,48.2436],[-91.1561,48.1405],[-91.2501,48.0841],[-91.5425,48.0533],[-91.5593,48.1083],[-91.6924,48.1193],[-91.7149,48.1991],[-91.9808,48.2478],[-92.0552,48.3592],[-92.2623,48.3549],[-92.3692,48.2203],[-92.5149,48.4483],[-92.6571,48.4669],[-92.728,48.5393],[-92.9549,48.6315],[-93.2074,48.6425],[-93.4643,48.5918],[-93.4675,48.5457],[-93.6746,48.5163],[-93.8152,48.5265],[-93.844,48.6294],[-94.2502,48.6563],[-94.2818,48.7053],[-94.4466,48.6929],[-94.619,48.7374],[-94.6943,48.7894],[-94.6831,48.8839],[-94.7742,49.125],[-94.8162,49.321],[-94.9521,49.3687],[-95.1533,49.3844],[-95.1537,48.9989],[-96.4054,49],[-97.229,49.0007]]]},"properties":{"NAME":"Minnesota","STUSPS":"MN","STATEFP":"27"}},
{"type":"Feature","geometry":{"type":"Polygon","coordinates":[[[-79.4767,39.7211],[-79.4869,39.206],[-79.2837,39.3096],[-79.0913,39.4724],[-78.9426,39.4796],[-78.7711,39.6384],[-78.7071,39.5559],[-78.461,39.526],[-78.383,39.6222],[-78.0823,39.6712],[-78.0067,39.6013],[-77.8298,39.5873],[-77.8238,39.5259],[-77.7195,39.3213],[-77.5882,39.302],[-77.4599,39.2187],[-77.5212,39.1611],[-77.4626,39.0762],[-77.3107,39.052],[-77.2498,38.9859],[-77.1198,38.9343],[-77.041,38.9955],[-76.9094,38.8929],[-77.039,38.7916],[-77.041,38.7379],[-77.2222,38.6075],[-77.3226,38.4671],[-77.2653,38.3332],[-77.0682,38.3809],[-76.9623,38.2141],[-76.8388,38.1635],[-76.6139,38.1486],[-76.492,38.0172],[-76.3576,37.9517],[-76.3272,38.1451],[-76.3927,38.2397],[-76.3934,38.3895],[-76.5175,38.5391],[-76.5267,38.7244],[-76.5058,38.8644],[-76.402,39.0064],[-76.4287,39.1317],[-76.4731,39.1598],[-76.2444,39.3375],[-76.1846,39.2963],[-76.2785,39.1458],[-76.234,39.0569],[-76.3223,39.0064],[-76.3674,38.8677],[-76.3097,38.8001],[-76.3899,38.7557],[-76.348,38.6862],[-76.2387,38.7128],[-76.1774,38.6604],[-76.2796,38.6095],[-76.3364,38.4922],[-76.2584,38.3329],[-76.0886,38.1926],[-76.0905,38.1199],[-76.0172,38.0783],[-76.0465,37.9536],[-75.9274,37.9085],[-75.8012,37.9122],[-75.6697,37.9508],[-75.6243,37.9942],[-75.2423,38.0272],[-75.1938,38.096],[-75.0489,38.4513],[-75.6937,38.4601],[-75.7669,39.3775],[-75.7886,39.7222],[-76.419,39.7215],[-77.4693,39.7202],[-78.3805,39.7227],[-79.4767,39.7211]]]},"properties":{"NAME":"Maryland","STUSPS":"MD","STATEFP":"24"}},
{"type":"Feature","geometry":{"type":"Polygon","coordinates":[[[-103.0024,36.5004],[-103.0419,36.5004],[-103.0408,36.0552],[-103.0426,35.1832],[-103.0435,34.0794],[-103.0526,33.5706],[-103.0649,32.8494],[-103.0644,32.0005],[-103.7229,32.0002],[-104.6435,32.0004],[-105.154,32.0005],[-105.998,32.002],[-106.6185,32.0005],[-106.6359,31.8715],[-106.5282,31.7831],[-106.4179,31.752],[-106.2808,31.5621],[-106.1757,31.4563],[-106.0803,31.3987],[-105.9539,31.3647],[-105.7733,31.1669],[-105.6273,31.0985],[-105.5574,30.9902],[-105.3149,30.817],[-105.2187,30.8016],[-105.0623,30.6863],[-105.0012,30.6726],[-104.8894,30.5351],[-104.8595,30.3904],[-104.7028,30.2117],[-104.704,30.0242],[-104.6723,29.9111],[-104.5657,29.7705],[-104.5398,29.6761],[-104.3712,29.5431],[-104.2291,29.4811],[-104.1437,29.3833],[-103.9752,29.296],[-103.789,29.2575],[-103.7247,29.1915],[-103.5246,29.121],[-103.4632,29.0668],[-103.2812,28.9821],[-103.1267,28.9821],[-103.0764,29.0857],[-102.8713,29.2416],[-102.8719,29.3521],[-102.8246,29.3996],[-102.8087,29.5223],[-102.6935,29.6765],[-102.6772,29.7383],[-102.5127,29.7803],[-102.3929,29.7656],[-102.3014,29.8777],[-102.0736,29.7869],[-101.9662,29.8073],[-101.6546,29.7652],[-101.5616,29.7947],[-101.4006,29.7381],[-101.3073,29.6407],[-101.2549,29.5203],[-101.0602,29.4587],[-100.9956,29.3634],[-100.8868,29.3078],[-100.7726,29.1685],[-100.6747,29.0998],[-100.6272,28.9037],[-100.5358,28.8059],[-100.5004,28.662],[-100.3973,28.5756],[-100.2676,28.2503],[-100.0755,28.1249],[-99.9849,27.9907],[-99.9322,27.9677],[-99.8447,27.7788],[-99.7046,27.655],[-99.5568,27.6143],[-99.4975,27.5005],[-99.4875,27.4124],[-99.5297,27.3061],[-99.4633,27.2684],[-99.43,27.1591],[-99.447,27.026],[-99.3289,26.8798],[-99.2686,26.8432],[-99.2089,26.7248],[-99.1714,26.5498],[-99.0916,26.477],[-99.1109,26.4263],[-98.891,26.3576],[-98.8073,26.3694],[-98.6542,26.236],[-98.6135,26.252],[-98.4425,26.1992],[-98.197,26.0562],[-97.7953,26.0552],[-97.644,26.0066],[-97.5826,25.9379],[-97.4226,25.8404],[-97.3383,25.9231],[-97.1456,25.9711],[-97.1969,26.3059],[-97.3227,26.7017],[-97.3669,26.8856],[-97.3787,27.06],[-97.3585,27.2348],[-97.2961,27.4272],[-97.1409,27.7167],[-97.0033,27.9083],[-96.8865,28.0307],[-96.632,28.2228],[-96.4428,28.3177],[-96.3904,28.3818],[-96.1944,28.5022],[-95.8125,28.6649],[-95.4396,28.859],[-95.3824,28.8663],[-95.0262,29.1481],[-94.7225,29.3314],[-94.731,29.3691],[-94.5949,29.4679],[-94.0565,29.6712],[-93.838,29.6906],[-93.9292,29.803],[-93.8304,29.8944],[-93.8078,29.9545],[-93.7039,30.0543],[-93.7072,30.2755],[-93.7603,30.3299],[-93.7027,30.4299],[-93.7292,30.5448],[-93.6299,30.6799],[-93.5309,30.9245],[-93.5351,31.1856],[-93.6754,31.301],[-93.6681,31.3751],[-93.8349,31.5862],[-93.8034,31.7007],[-93.9096,31.8931],[-94.0418,31.9924],[-94.043,33.0192],[-94.0434,33.5514],[-94.1834,33.5922],[-94.3542,33.5565],[-94.4859,33.6379],[-94.8416,33.7394],[-94.9816,33.8523],[-95.0466,33.8626],[-95.2264,33.962],[-95.2834,33.8777],[-95.4474,33.8689],[-95.5569,33.927],[-95.7375,33.896],[-95.8206,33.8585],[-95.9353,33.8751],[-96.1516,33.8319],[-96.2773,33.7697],[-96.3631,33.6942],[-96.4365,33.7801],[-96.5929,33.8309],[-96.6599,33.9167],[-96.7124,33.8316],[-96.8506,33.8472],[-96.9523,33.9446],[-97.0558,33.8557],[-97.0911,33.7351],[-97.1494,33.722],[-97.2057,33.8098],[-97.2061,33.9143],[-97.3729,33.8195],[-97.4442,33.8238],[-97.4865,33.917],[-97.5583,33.8971],[-97.6718,33.9914],[-97.8658,33.8494],[-97.9512,33.8784],[-97.9476,33.9911],[-98.0828,34.0024],[-98.0993,34.1043],[-98.364,34.1571],[-98.4751,34.0643],[-98.5771,34.149],[-98.7372,34.131],[-98.9402,34.2037],[-99.1895,34.2143],[-99.2116,34.314],[-99.2753,34.3866],[-99.395,34.4421],[-99.4204,34.3805],[-99.5845,34.4077],[-99.6965,34.381],[-99.9293,34.5767],[-100.0004,34.5605],[-100.0004,35.6191],[-100.0004,36.4997],[-100.5926,36.4995],[-101.6239,36.4995],[-102.1625,36.5003],[-103.0024,36.5004]]]},"properties":{"NAME":"Texas","STUSPS":"TX","STATEFP":"48"}},
{"type":"Feature","geometry":{"type":"Polygon","coordinates":[[[-85.6052,34.9847],[-85.5614,34.7501],[-85.4295,34.1251],[-85.3381,33.6531],[-85.1844,32.8613],[-85.1142,32.7304],[-85.0698,32.5831],[-84.9718,32.4428],[-85.0081,32.3367],[-84.8918,32.2634],[-85.0587,32.136],[-85.0678,31.9674],[-85.1418,31.8393],[-85.1255,31.695],[-85.0419,31.5447],[-85.0925,31.3629],[-85.1075,31.1865],[-85.0356,31.1082],[-85.0025,31.0007],[-84.9357,30.8787],[-84.9181,30.7721],[-84.8647,30.7115],[-84.125,30.678],[-83.1314,30.6236],[-82.2186,30.5644],[-82.18,30.3686],[-82.0408,30.3701],[-82.0157,30.6017],[-82.0495,30.6555],[-82.0327,30.7507],[-81.9432,30.8274],[-81.7322,30.7496],[-81.4441,30.7097],[-81.4601,30.7699],[-81.4052,30.9082],[-81.4021,31.1254],[-81.305,31.2062],[-81.261,31.3039],[-81.2586,31.4044],[-81.1335,31.6233],[-81.1306,31.7227],[-80.8484,31.9883],[-80.8855,32.0346],[-81.0067,32.1012],[-81.1133,32.1132],[-81.1535,32.2377],[-81.133,32.3348],[-81.1948,32.4651],[-81.2749,32.5442],[-81.3971,32.6056],[-81.4206,32.8312],[-81.4996,32.9437],[-81.502,33.0151],[-81.6017,33.0847],[-81.7551,33.1516],[-81.8465,33.2417],[-81.8461,33.3038],[-81.9327,33.3435],[-81.9263,33.4629],[-82.0282,33.5449],[-82.1619,33.6106],[-82.3245,33.82],[-82.5568,33.9454],[-82.6428,34.0813],[-82.7154,34.1482],[-82.745,34.2449],[-82.8738,34.4715],[-83.0483,34.4933],[-83.1546,34.5882],[-83.3387,34.682],[-83.3239,34.7897],[-83.1406,34.9249],[-83.1086,35.0007],[-83.62,34.9866],[-84.3219,34.9884],[-85.385,34.983],[-85.6052,34.9847]]]},"properties":{"NAME":"Georgia","STUSPS":"GA","STATEFP":"13"}},
{"type":"Feature","geometry":{"type":"MultiPolygon","coordinates":[[[[-75.6697,37.9508],[-75.7089,37.843],[-75.8181,37.7917],[-75.9412,37.5638],[-76.0235,37.2891],[-75.9796,37.1004],[-75.8174,37.1934],[-75.7788,37.2972],[-75.6584,37.4518],[-75.5519,37.7481],[-75.439,37.8693],[-75.3806,37.8517],[-75.2423,38.0272],[-75.6243,37.9942],[-75.6697,37.9508]]],[[[-81.9683,37.5378],[-82.3553,37.2652],[-82.5582,37.1996],[-82.7263,37.1119],[-82.7507,37.0241],[-82.8692,36.9742],[-82.8954,36.8821],[-83.0756,36.8506],[-83.1364,36.7431],[-83.4365,36.6662],[-83.5271,36.666],[-83.6754,36.6008],[-82.8304,36.5938],[-81.9341,36.5942],[-81.6775,36.5881],[-80.9017,36.5618],[-80.2952,36.544],[-79.5136,36.5407],[-78.51,36.5411],[-77.7497,36.5455],[-76.9173,36.546],[-75.867,36.5508],[-75.9963,36.922],[-76.088,36.9086],[-76.268,36.9645],[-76.2713,37.0845],[-76.3941,37.2252],[-76.2756,37.31],[-76.2505,37.4219],[-76.3291,37.671],[-76.3103,37.7948],[-76.2367,37.8892],[-76.3576,37.9517],[-76.492,38.0172],[-76.6139,38.1486],[-76.8388,38.1635],[-76.9623,38.2141],[-77.0682,38.3809],[-77.2653,38.3332],[-77.3226,38.4671],[-77.2222,38.6075],[-77.041,38.7379],[-77.039,38.7916],[-77.0391,38.8681],[-77.1198,38.9343],[-77.2498,38.9859],[-77.3107,39.052],[-77.4626,39.0762],[-77.5212,39.1611],[-77.4599,39.2187],[-77.5882,39.302],[-77.7195,39.3213],[-77.8282,39.1323],[-78.3471,39.466],[-78.3405,39.3535],[-78.4018,39.2768],[-78.4139,39.1584],[-78.5617,39.009],[-78.7728,38.8937],[-78.8693,38.763],[-78.999,38.8401],[-79.093,38.6595],[-79.2316,38.474],[-79.2978,38.4164],[-79.4766,38.4572],[-79.5426,38.5532],[-79.6491,38.5915],[-79.6897,38.4314],[-79.7875,38.2733],[-79.9162,38.1844],[-79.9712,38.0443],[-80.1996,37.8275],[-80.2923,37.6837],[-80.2234,37.6232],[-80.2916,37.5365],[-80.4648,37.4261],[-80.5448,37.4747],[-80.7701,37.3724],[-80.8364,37.4244],[-80.9193,37.3062],[-81.1126,37.2785],[-81.2251,37.2349],[-81.3622,37.3377],[-81.4279,37.271],[-81.5606,37.2067],[-81.6786,37.2025],[-81.7747,37.2748],[-81.8499,37.2852],[-81.9849,37.4543],[-81.9683,37.5378]]]]},"properties":{"NAME":"Virginia","STUSPS":"VA","STATEFP":"51"}},
{"type":"Feature","geometry":{"type":"Polygon","coordinates":[[[-91.4194,40.3783],[-91.4697,40.3224],[-91.512,40.1704],[-91.4841,40.0193],[-91.4371,39.9464],[-91.4361,39.8455],[-91.3678,39.729],[-91.1003,39.5387],[-91.0383,39.4484],[-90.8401,39.3404],[-90.73,39.2559],[-90.6811,39.1006],[-90.7136,39.054],[-90.6573,38.9203],[-90.5557,38.8708],[-90.4678,38.9618],[-90.2303,38.9109],[-90.1133,38.8493],[-90.2099,38.7261],[-90.1845,38.6116],[-90.3725,38.3234],[-90.3639,38.2364],[-90.2187,38.0944],[-90.0084,37.9702],[-89.9232,37.8707],[-89.851,37.904],[-89.6966,37.8143],[-89.668,37.7595],[-89.5219,37.6965],[-89.5124,37.5298],[-89.4259,37.4075],[-89.4952,37.3248],[-89.4561,37.1881],[-89.3595,37.0426],[-89.1329,36.9821],[-89.1681,37.0742],[-89.058,37.1888],[-88.9317,37.2276],[-88.7531,37.1547],[-88.4761,37.0682],[-88.4248,37.1499],[-88.5147,37.2909],[-88.4659,37.4005],[-88.3584,37.4049],[-88.2817,37.4526],[-88.0623,37.4878],[-88.1601,37.6543],[-88.028,37.7992],[-88.0674,37.8561],[-88.0163,37.9616],[-88.0309,38.0307],[-87.9275,38.1519],[-87.969,38.2374],[-87.832,38.3072],[-87.6607,38.5411],[-87.6201,38.6395],[-87.4989,38.7578],[-87.5474,38.8756],[-87.5295,38.9719],[-87.6254,39.1018],[-87.577,39.2111],[-87.6004,39.3129],[-87.5316,39.3479],[-87.5323,40.0116],[-87.5263,40.5354],[-87.5268,41.2982],[-87.524,41.7083],[-87.6094,41.8452],[-87.6824,42.0757],[-87.8001,42.208],[-87.8348,42.3015],[-87.8005,42.4919],[-88.7074,42.4936],[-89.8376,42.5049],[-90.6428,42.5085],[-90.4463,42.357],[-90.4309,42.2782],[-90.1612,42.1064],[-90.1406,41.996],[-90.1806,41.812],[-90.3107,41.7422],[-90.3395,41.5986],[-90.4614,41.5235],[-90.5711,41.5163],[-90.7012,41.4547],[-91.0278,41.4236],[-91.1142,41.25],[-90.9572,41.1111],[-90.9522,40.954],[-91.093,40.8211],[-91.1208,40.6728],[-91.3397,40.6135],[-91.3729,40.3991],[-91.4194,40.3783]]]},"properties":{"NAME":"Illinois","STUSPS":"IL","STATEFP":"17"}},
{"type":"Feature","geometry":{"type":"MultiPolygon","coordinates":[[[[-90.7769,47.0243],[-90.6371,46.9067],[-90.5116,46.9614],[-90.5609,47.037],[-90.7769,47.0243]]],[[[-92.0153,46.7065],[-92.1433,46.7316],[-92.2055,46.6647],[-92.2922,46.6632],[-92.294,46.0744],[-92.3518,46.0157],[-92.5457,45.9701],[-92.7211,45.8838],[-92.8697,45.7151],[-92.8811,45.5734],[-92.7569,45.5575],[-92.6468,45.4379],[-92.7619,45.2849],[-92.7405,45.1134],[-92.8029,45.0654],[-92.7508,44.9416],[-92.8053,44.7684],[-92.5493,44.5777],[-92.3141,44.538],[-92.2325,44.4454],[-91.9636,44.3621],[-91.8927,44.2311],[-91.5733,44.0269],[-91.4405,44.0015],[-91.291,43.8527],[-91.244,43.773],[-91.2733,43.6666],[-91.2177,43.5005],[-91.2074,43.3737],[-91.0579,43.254],[-91.1753,43.1347],[-91.138,42.9038],[-91.0707,42.7755],[-90.9416,42.6838],[-90.7009,42.6264],[-90.6428,42.5085],[-89.8376,42.5049],[-88.7074,42.4936],[-87.8005,42.4919],[-87.8147,42.644],[-87.7667,42.7849],[-87.8349,42.8567],[-87.8958,43.0158],[-87.8892,43.3077],[-87.7932,43.4928],[-87.7901,43.5631],[-87.7062,43.6795],[-87.736,43.8737],[-87.6552,44.0819],[-87.5074,44.2108],[-87.5454,44.3214],[-87.447,44.5863],[-87.276,44.8332],[-87.0632,45.0793],[-87.0442,45.1869],[-87.1216,45.2098],[-87.2382,45.1673],[-87.2649,45.0814],[-87.4465,44.8861],[-87.5813,44.8518],[-87.7209,44.7245],[-87.7752,44.6393],[-87.9987,44.6093],[-87.9835,44.7202],[-87.8384,44.874],[-87.813,44.954],[-87.6303,44.9769],[-87.5902,45.0953],[-87.7418,45.1971],[-87.6573,45.3688],[-87.8635,45.353],[-87.8058,45.4731],[-87.781,45.6739],[-87.8798,45.7548],[-88.1351,45.8217],[-88.1153,45.9222],[-88.4099,45.9797],[-88.5267,46.0208],[-88.6578,45.9893],[-88.8119,46.0216],[-89.0916,46.1385],[-90.1205,46.3369],[-90.2149,46.4999],[-90.4181,46.5661],[-90.5656,46.5849],[-90.7553,46.6463],[-90.8983,46.5831],[-90.8808,46.74],[-90.7453,46.8943],[-90.9241,47.0019],[-90.9846,46.9256],[-91.1676,46.8448],[-91.82,46.6902],[-92.0153,46.7065]]]]},"properties":{"NAME":"Wisconsin","STUSPS":"WI","STATEFP":"55"}},
{"type":"Feature","geometry":{"type":"MultiPolygon","coordinates":[[[[-81.8117,24.5687],[-81.6852,24.5587],[-81.4439,24.6427],[-81.4019,24.6235],[-81.2432,24.674],[-81.3051,24.7552],[-81.4435,24.8134],[-81.7513,24.6535],[-81.8117,24.5687]]],[[[-82.0149,24.5431],[-81.9189,24.4981],[-81.8687,24.5841],[-81.9839,24.5807],[-82.0149,24.5431]]],[[[-85.0025,31.0007],[-85.8936,30.9935],[-86.5635,30.9952],[-87.5989,30.9974],[-87.6349,30.8659],[-87.5236,30.7383],[-87.4002,30.6572],[-87.4447,30.5075],[-87.4147,30.4573],[-87.4523,30.3441],[-87.5183,30.2804],[-87.3195,30.3178],[-87.1554,30.3277],[-86.8506,30.381],[-86.633,30.3963],[-86.4121,30.3803],[-86.2226,30.3436],[-85.9999,30.2708],[-85.6012,30.0563],[-85.4878,29.9612],[-85.3847,29.9209],[-85.4165,29.8426],[-85.3526,29.6598],[-85.2597,29.6813],[-85.0451,29.587],[-84.777,29.6922],[-84.6926,29.763],[-84.565,29.8102],[-84.5774,29.8878],[-84.4703,29.9245],[-84.3491,29.8968],[-84.3661,30.0087],[-84.2897,30.0572],[-84.063,30.1014],[-83.6792,29.9185],[-83.5376,29.7231],[-83.4147,29.6705],[-83.4016,29.5233],[-83.2405,29.4332],[-83.1696,29.2904],[-82.9961,29.1781],[-82.8271,29.1584],[-82.8237,29.0989],[-82.6889,28.9056],[-82.7302,28.8502],[-82.7124,28.7209],[-82.6687,28.6957],[-82.6567,28.5448],[-82.7641,28.2443],[-82.8596,28.1741],[-82.8282,28.0201],[-82.8465,27.8543],[-82.7462,27.7313],[-82.705,27.6253],[-82.5539,27.8485],[-82.432,27.7681],[-82.5143,27.7056],[-82.6507,27.5231],[-82.6918,27.4372],[-82.5397,27.2543],[-82.4527,27.0794],[-82.2647,26.7568],[-82.2454,26.6011],[-82.1807,26.4763],[-82.075,26.4221],[-81.9236,26.4367],[-81.8446,26.3277],[-81.8088,26.1522],[-81.7271,25.9072],[-81.6147,25.894],[-81.3838,25.7768],[-81.2899,25.6736],[-81.1468,25.4076],[-81.1709,25.2459],[-81.0799,25.1188],[-80.9159,25.1413],[-80.8121,25.186],[-80.7477,25.1474],[-80.6505,25.1891],[-80.4954,25.1998],[-80.5166,25.0955],[-80.6109,25.007],[-80.8475,24.8518],[-81.1487,24.7105],[-81.1034,24.6695],[-80.9662,24.7079],[-80.6512,24.8661],[-80.4968,24.9993],[-80.3582,25.1532],[-80.1632,25.4522],[-80.3104,25.3897],[-80.337,25.4656],[-80.3015,25.6133],[-80.2291,25.7325],[-80.155,25.6655],[-80.11,25.8183],[-80.1096,26.0872],[-80.0389,26.5693],[-80.0463,26.8592],[-80.1534,27.1693],[-80.2537,27.3798],[-80.3837,27.74],[-80.5477,28.0488],[-80.59,28.178],[-80.6069,28.3365],[-80.5251,28.4595],[-80.5839,28.5977],[-80.787,28.8753],[-80.9662,29.148],[-81.1636,29.5553],[-81.2567,29.7847],[-81.3964,30.34],[-81.4431,30.6009],[-81.4441,30.7097],[-81.7322,30.7496],[-81.9432,30.8274],[-82.0327,30.7507],[-82.0495,30.6555],[-82.0157,30.6017],[-82.0408,30.3701],[-82.18,30.3686],[-82.2186,30.5644],[-83.1314,30.6236],[-84.125,30.678],[-84.8647,30.7115],[-84.9181,30.7721],[-84.9357,30.8787],[-85.0025,31.0007]]]]},"properties":{"NAME":"Florida","STUSPS":"FL","STATEFP":"12"}},
{"type":"Feature","geometry":{"type":"Polygon","coordinates":[[[-96.4533,43.5004],[-96.5989,43.5005],[-96.5216,43.3856],[-96.5221,43.221],[-96.4393,43.1139],[-96.5116,43.0399],[-96.5003,42.9594],[-96.6219,42.7793],[-96.6247,42.7255],[-96.5268,42.6412],[-96.4455,42.4906],[-96.3813,42.4617],[-96.408,42.3374],[-96.336,42.2648],[-96.3478,42.1668],[-96.2689,42.1136],[-96.2729,42.0472],[-96.1325,41.9746],[-96.1591,41.9101],[-96.0645,41.793],[-96.1181,41.6135],[-95.9225,41.4558],[-95.9257,41.3222],[-95.8568,41.1871],[-95.8659,41.0174],[-95.8107,40.8867],[-95.8342,40.783],[-95.8887,40.7363],[-95.7819,40.6533],[-95.7656,40.5852],[-94.5339,40.5707],[-94.0911,40.5729],[-93.1358,40.5829],[-92.1798,40.6005],[-91.7291,40.6136],[-91.4981,40.4019],[-91.4194,40.3783],[-91.3729,40.3991],[-91.3397,40.6135],[-91.1208,40.6728],[-91.093,40.8211],[-90.9522,40.954],[-90.9572,41.1111],[-91.1142,41.25],[-91.0278,41.4236],[-90.7012,41.4547],[-90.5711,41.5163],[-90.4614,41.5235],[-90.3395,41.5986],[-90.3107,41.7422],[-90.1806,41.812],[-90.1406,41.996],[-90.1612,42.1064],[-90.4309,42.2782],[-90.4463,42.357],[-90.6428,42.5085],[-90.7009,42.6264],[-90.9416,42.6838],[-91.0707,42.7755],[-91.138,42.9038],[-91.1753,43.1347],[-91.0579,43.254],[-91.2074,43.3737],[-91.2177,43.5005],[-92.4489,43.5004],[-93.2289,43.4996],[-93.9708,43.4996],[-94.8546,43.5006],[-95.8344,43.5],[-96.4533,43.5004]]]},"properties":{"NAME":"Iowa","STUSPS":"IA","STATEFP":"19"}},
{"type":"Feature","geometry":{"type":"Polygon","coordinates":[[[-95.7656,40.5852],[-95.6494,40.3961],[-95.6537,40.3226],[-95.4725,40.2361],[-95.3942,40.1083],[-95.383,40.0271],[-95.3083,40],[-95.0815,39.8617],[-94.9515,39.9005],[-94.8604,39.7495],[-95.0375,39.6529],[-95.1136,39.5539],[-94.9467,39.3997],[-94.7997,39.206],[-94.6803,39.1843],[-94.6074,39.1134],[-94.6126,38.2378],[-94.6179,37.6822],[-94.618,36.9989],[-94.6179,36.4994],[-93.9592,36.4987],[-92.854,36.498],[-92.3503,36.4978],[-91.1265,36.4978],[-90.1539,36.4953],[-90.0661,36.3863],[-90.064,36.303],[-90.2945,36.1129],[-90.3687,35.9958],[-89.7331,36.0006],[-89.5227,36.3448],[-89.5392,36.4979],[-89.5444,36.5745],[-89.4079,36.5623],[-89.3247,36.624],[-89.2273,36.5694],[-89.1655,36.6624],[-89.1329,36.9821],[-89.3595,37.0426],[-89.4561,37.1881],[-89.4952,37.3248],[-89.4259,37.4075],[-89.5124,37.5298],[-89.5219,37.6965],[-89.668,37.7595],[-89.6966,37.8143],[-89.851,37.904],[-89.9232,37.8707],[-90.0084,37.9702],[-90.2187,38.0944],[-90.3639,38.2364],[-90.3725,38.3234],[-90.1845,38.6116],[-90.2099,38.7261],[-90.1133,38.8493],[-90.2303,38.9109],[-90.4678,38.9618],[-90.5557,38.8708],[-90.6573,38.9203],[-90.7136,39.054],[-90.6811,39.1006],[-90.73,39.2559],[-90.8401,39.3404],[-91.0383,39.4484],[-91.1003,39.5387],[-91.3678,39.729],[-91.4361,39.8455],[-91.4371,39.9464],[-91.4841,40.0193],[-91.512,40.1704],[-91.4697,40.3224],[-91.4194,40.3783],[-91.4981,40.4019],[-91.7291,40.6136],[-92.1798,40.6005],[-93.1358,40.5829],[-94.0911,40.5729],[-94.5339,40.5707],[-95.7656,40.5852]]]},"properties":{"NAME":"Missouri","STUSPS":"MO","STATEFP":"29"}},
{"type":"Feature","geometry":{"type":"MultiPolygon","coordinates":[[[[-84.6162,45.8945],[-84.6508,45.8592],[-84.4841,45.7307],[-84.356,45.7719],[-84.5179,45.8285],[-84.6162,45.8945]]],[[[-85.7018,45.7361],[-85.6227,45.586],[-85.5093,45.5965],[-85.361,45.8176],[-85.5244,45.8298],[-85.7018,45.7361]]],[[[-86.1381,45.043],[-86.0815,44.9901],[-85.954,45.1193],[-86.0444,45.1596],[-86.1381,45.043]]],[[[-86.8248,41.7602],[-85.7914,41.7591],[-84.8059,41.7602],[-84.8061,41.6961],[-84.1344,41.7129],[-83.4538,41.7326],[-83.4417,41.8086],[-83.2695,41.939],[-83.1335,42.0881],[-83.0965,42.2901],[-82.924,42.3521],[-82.8593,42.5419],[-82.801,42.6295],[-82.7079,42.6755],[-82.6791,42.5222],[-82.584,42.554],[-82.5099,42.6373],[-82.4675,42.7619],[-82.4699,42.8875],[-82.4159,43.0056],[-82.486,43.1025],[-82.5231,43.2254],[-82.5399,43.4224],[-82.5938,43.5815],[-82.6336,43.8312],[-82.7932,44.0232],[-82.9289,44.0694],[-83.0466,44.0157],[-83.2615,43.9735],[-83.4071,43.9198],[-83.5123,43.7337],[-83.6834,43.5906],[-83.9477,43.7352],[-83.8694,43.9607],[-83.6932,43.9888],[-83.5841,44.0567],[-83.5248,44.2616],[-83.4427,44.2654],[-83.337,44.3329],[-83.3145,44.6087],[-83.2768,44.6894],[-83.3205,44.8806],[-83.4389,44.9408],[-83.4421,45.0511],[-83.2659,45.0268],[-83.3159,45.14],[-83.4059,45.2272],[-83.3851,45.2742],[-83.4888,45.3559],[-83.5993,45.3526],[-83.8415,45.4353],[-83.9095,45.4858],[-84.0959,45.4973],[-84.196,45.6215],[-84.3295,45.6644],[-84.4617,45.6524],[-84.7189,45.7776],[-84.867,45.7521],[-85.1197,45.569],[-85.0409,45.4367],[-84.9591,45.376],[-85.1967,45.3606],[-85.3716,45.2708],[-85.3807,45.0463],[-85.52,44.974],[-85.5661,45.0436],[-85.5315,45.1772],[-85.6331,45.1709],[-85.7804,44.9779],[-85.9802,44.9061],[-86.0589,44.911],[-86.0892,44.7415],[-86.2485,44.699],[-86.2207,44.5667],[-86.2687,44.3453],[-86.4299,44.1198],[-86.5147,44.0581],[-86.4312,43.8407],[-86.4451,43.7716],[-86.5408,43.6446],[-86.4078,43.3384],[-86.2546,43.0834],[-86.2263,42.9883],[-86.2083,42.7628],[-86.2406,42.54],[-86.3562,42.2542],[-86.4663,42.1344],[-86.5979,41.9183],[-86.8248,41.7602]]],[[[-89.2213,47.9081],[-89.1577,47.824],[-88.899,47.9007],[-88.8529,47.9653],[-88.5792,48.0408],[-88.6319,48.1483],[-88.8161,48.057],[-89.2213,47.9081]]],[[[-90.4181,46.5661],[-90.2149,46.4999],[-90.1205,46.3369],[-89.0916,46.1385],[-88.8119,46.0216],[-88.6578,45.9893],[-88.5267,46.0208],[-88.4099,45.9797],[-88.1153,45.9222],[-88.1351,45.8217],[-87.8798,45.7548],[-87.781,45.6739],[-87.8058,45.4731],[-87.8635,45.353],[-87.6573,45.3688],[-87.7418,45.1971],[-87.5902,45.0953],[-87.549,45.1916],[-87.3509,45.4077],[-87.1722,45.6618],[-87.0704,45.7188],[-86.9643,45.6728],[-86.8387,45.7223],[-86.7733,45.8114],[-86.6473,45.7326],[-86.7052,45.6909],[-86.617,45.6206],[-86.5414,45.7081],[-86.3491,45.8342],[-86.278,45.9421],[-86.0721,45.9653],[-85.9138,45.9194],[-85.8104,45.9801],[-85.6972,45.9602],[-85.5409,46.0796],[-85.3814,46.082],[-85.152,46.0507],[-85.0036,46.0061],[-84.7928,45.8587],[-84.6329,45.951],[-84.4804,45.9778],[-84.3764,45.932],[-84.0801,45.9708],[-83.801,45.9376],[-83.6577,45.9455],[-83.5263,45.9186],[-83.4806,45.9962],[-83.5986,46.0901],[-83.8158,46.1085],[-83.8823,46.0421],[-84.1149,46.1741],[-84.0978,46.2565],[-84.1389,46.3722],[-84.1179,46.5176],[-84.1937,46.5399],[-84.293,46.4928],[-84.4203,46.5011],[-84.4934,46.4403],[-84.6784,46.4877],[-84.8498,46.4602],[-84.9695,46.4763],[-85.0274,46.5538],[-85.0283,46.6751],[-84.9647,46.7728],[-85.2569,46.7534],[-85.4821,46.6804],[-85.8411,46.6889],[-86.1383,46.6729],[-86.4599,46.5519],[-86.5577,46.4874],[-86.6956,46.555],[-86.811,46.4497],[-86.977,46.5266],[-87.1751,46.4975],[-87.3668,46.5073],[-87.3816,46.5801],[-87.503,46.6475],[-87.5953,46.783],[-87.6872,46.8417],[-87.9003,46.9097],[-88.0652,46.9186],[-88.1437,46.9667],[-88.3727,46.8723],[-88.4554,46.9233],[-88.3401,47.0805],[-88.1942,47.2092],[-87.9434,47.3359],[-87.9416,47.3901],[-87.6047,47.3886],[-87.6801,47.4557],[-87.9293,47.4787],[-88.2178,47.4487],[-88.4187,47.3712],[-88.5849,47.2424],[-88.6997,47.2048],[-88.8891,47.1006],[-88.9594,47.0085],[-89.1426,46.9849],[-89.2279,46.913],[-89.4152,46.844],[-89.832,46.8041],[-90.0454,46.6683],[-90.3276,46.6077],[-90.4181,46.5661]]]]},"properties":{"NAME":"Michigan","STUSPS":"MI","STATEFP":"26"}},
{"type":"Feature","geometry":{"type":"MultiPolygon","coordinates":[[[[-118.594,33.4672],[-118.4654,33.3261],[-118.3252,33.2991],[-118.2863,33.3515],[-118.4848,33.4875],[-118.594,33.4672]]],[[[-118.594,33.036],[-118.5815,32.9317],[-118.4256,32.8006],[-118.3535,32.822],[-118.594,33.036]]],[[[-119.9162,34.0584],[-119.8734,33.9804],[-119.7212,33.9596],[-119.5545,33.9978],[-119.3916,33.9946],[-119.3642,34.0508],[-119.9162,34.0584]]],[[[-120.3683,34.0765],[-120.3648,33.9918],[-120.2001,33.9569],[-120.1218,33.8957],[-119.9737,33.9425],[-120.0551,34.0377],[-120.1359,34.0261],[-120.3683,34.0765]]],[[[-124.2116,41.9985],[-124.245,41.7923],[-124.1542,41.7288],[-124.082,41.5478],[-124.0631,41.4396],[-124.1227,41.1897],[-124.164,41.1387],[-124.1181,40.9893],[-124.1767,40.8436],[-124.3014,40.6596],[-124.4096,40.4381],[-124.3531,40.3314],[-124.3634,40.261],[-124.0871,40.0784],[-123.9077,39.863],[-123.8517,39.832],[-123.7665,39.5528],[-123.8253,39.3608],[-123.6907,39.0213],[-123.7105,38.9132],[-123.5148,38.742],[-123.4418,38.6997],[-123.3319,38.5655],[-123.1664,38.4749],[-123.0041,38.297],[-122.9536,38.1757],[-122.9397,38.0319],[-122.8566,38.0167],[-122.7026,37.8938],[-122.5373,37.8303],[-122.4185,37.8527],[-122.4864,37.9219],[-122.453,37.9962],[-122.4913,38.1081],[-122.3936,38.1434],[-122.2629,38.0515],[-122.4253,37.9557],[-122.3345,37.9088],[-122.313,37.7772],[-122.163,37.6679],[-122.112,37.5289],[-122.1684,37.5041],[-122.3602,37.5925],[-122.3981,37.8056],[-122.512,37.7711],[-122.4968,37.6121],[-122.5167,37.5213],[-122.446,37.4615],[-122.4013,37.337],[-122.3971,37.1872],[-122.2062,37.0139],[-122.106,36.956],[-121.9065,36.969],[-121.7915,36.8152],[-121.8145,36.6829],[-121.8606,36.6111],[-121.9704,36.5828],[-121.8885,36.3028],[-121.8264,36.2419],[-121.6801,36.1658],[-121.5746,36.0252],[-121.4862,35.9703],[-121.4623,35.8856],[-121.3324,35.7831],[-121.2723,35.6667],[-121.1667,35.6354],[-121.0034,35.4607],[-120.8848,35.4302],[-120.8621,35.3608],[-120.8968,35.2479],[-120.7561,35.1605],[-120.6358,35.1238],[-120.6708,34.9041],[-120.6103,34.8582],[-120.602,34.6921],[-120.6457,34.581],[-120.5114,34.523],[-120.4514,34.4471],[-120.1412,34.4734],[-119.874,34.4088],[-119.7091,34.3954],[-119.6169,34.421],[-119.461,34.3741],[-119.2701,34.2529],[-119.2277,34.1617],[-119.1098,34.0946],[-118.8051,34.0012],[-118.745,34.0321],[-118.5195,34.0275],[-118.4127,33.8839],[-118.3966,33.7359],[-118.2587,33.7037],[-118.1327,33.7532],[-117.9271,33.6055],[-117.8403,33.5735],[-117.6456,33.4407],[-117.4456,33.2685],[-117.3626,33.1684],[-117.2808,33.0123],[-117.2545,32.9001],[-117.2822,32.8395],[-117.1367,32.6188],[-117.1249,32.5342],[-116.5406,32.5837],[-115.4652,32.6671],[-114.7196,32.7188],[-114.5707,32.7474],[-114.469,32.8452],[-114.5113,33.0235],[-114.6708,33.038],[-114.7062,33.1053],[-114.6745,33.2556],[-114.7233,33.2881],[-114.7073,33.3766],[-114.6352,33.4227],[-114.5246,33.5522],[-114.4966,33.7192],[-114.535,33.9285],[-114.4548,34.011],[-114.428,34.0928],[-114.2297,34.1869],[-114.1391,34.2595],[-114.1728,34.345],[-114.3354,34.45],[-114.4224,34.5807],[-114.4652,34.6912],[-114.6344,34.8729],[-114.6335,35.0019],[-115.0438,35.332],[-115.6477,35.8094],[-116.4882,36.4591],[-117.0009,36.8477],[-117.6806,37.3534],[-118.501,37.949],[-118.9497,38.2689],[-120.001,38.9996],[-120.0051,39.2913],[-119.9976,39.9565],[-119.9975,40.721],[-119.9999,41.184],[-119.9992,41.9945],[-121.0352,41.9933],[-121.4396,41.9971],[-122.5011,42.0085],[-123.657,41.9951],[-124.2116,41.9985]]]]},"properties":{"NAME":"California","STUSPS":"CA","STATEFP":"06"}},
{"type":"Feature","geometry":{"type":"Polygon","coordinates":[[[-116.0492,49.0009],[-116.0492,47.9999],[-115.8354,47.761],[-115.7238,47.6967],[-115.717,47.5327],[-115.6347,47.4818],[-115.7103,47.4178],[-115.5786,47.367],[-115.471,47.2849],[-115.3269,47.2559],[-115.0317,46.9715],[-114.9433,46.868],[-114.7672,46.7388],[-114.6267,46.7129],[-114.5473,46.6445],[-114.3207,46.647],[-114.3848,46.4118],[-114.4225,46.3871],[-114.4802,46.0303],[-114.4023,45.9615],[-114.423,45.8554],[-114.5625,45.7799],[-114.5049,45.7222],[-114.5381,45.6068],[-114.5063,45.5592],[-114.2792,45.4806],[-114.015,45.654],[-113.9716,45.7006],[-113.8067,45.6021],[-113.7356,45.3253],[-113.5747,45.1284],[-113.452,45.0592],[-113.4746,44.9108],[-113.4224,44.8426],[-113.2472,44.823],[-113.1314,44.7647],[-113.0493,44.6294],[-113.0068,44.4717],[-112.8818,44.3803],[-112.7078,44.503],[-112.4732,44.48],[-112.2862,44.5685],[-112.1251,44.5285],[-111.8705,44.564],[-111.8079,44.5117],[-111.7042,44.5602],[-111.5628,44.5552],[-111.4388,44.7205],[-111.3237,44.7245],[-111.1227,44.4937],[-111.049,44.4741],[-111.0569,44.8667],[-111.0443,45.0013],[-110.7053,44.9923],[-109.995,45.0032],[-109.1034,45.0059],[-108.6215,44.9997],[-107.9115,45.0015],[-106.8888,44.9959],[-106.2636,44.9938],[-105.0253,45.0003],[-104.0577,44.9974],[-104.0391,44.9985],[-104.0454,45.9453],[-104.045,46.5098],[-104.0453,47.3301],[-104.0424,47.8033],[-104.0476,48.4941],[-104.0487,48.9999],[-104.8755,48.999],[-106.0505,48.9992],[-107.441,48.9994],[-108.2364,48.9996],[-109.0007,48.9992],[-110.1716,48.9993],[-111.5008,48.997],[-112.1934,48.9989],[-113.693,48.9976],[-115.2079,48.9992],[-116.0492,49.0009]]]},"properties":{"NAME":"Montana","STUSPS":"MT","STATEFP":"30"}},
{"type":"Feature","geometry":{"type":"Polygon","coordinates":[[[-89.7331,36.0006],[-89.6523,35.9215],[-89.7234,35.8094],[-89.9566,35.6955],[-89.9585,35.5417],[-90.1219,35.3045],[-90.0906,35.1183],[-90.3093,34.9957],[-89.435,34.9938],[-88.2001,34.9956],[-88.203,35.008],[-86.7836,34.9919],[-85.6052,34.9847],[-85.385,34.983],[-84.3219,34.9884],[-84.2832,35.2266],[-84.2237,35.2691],[-84.0975,35.2474],[-84.0235,35.2958],[-84.0218,35.4074],[-83.7717,35.5621],[-83.4983,35.563],[-83.1615,35.7634],[-82.9784,35.7826],[-82.7794,35.9925],[-82.6284,36.0621],[-82.5579,35.9539],[-82.4646,36.0065],[-82.4095,36.0834],[-82.2113,36.159],[-82.1271,36.1044],[-82.0287,36.1243],[-81.9081,36.302],[-81.8332,36.3473],[-81.706,36.3385],[-81.7343,36.4133],[-81.6775,36.5881],[-81.9341,36.5942],[-82.8304,36.5938],[-83.6754,36.6008],[-83.6907,36.5826],[-84.7853,36.6034],[-85.2906,36.6265],[-85.4884,36.615],[-85.8739,36.6236],[-86.5078,36.6524],[-87.8532,36.6332],[-88.0705,36.6781],[-88.0505,36.5001],[-88.9645,36.5022],[-89.5392,36.4979],[-89.5227,36.3448],[-89.7331,36.0006]]]},"properties":{"NAME":"Tennessee","STUSPS":"TN","STATEFP":"47"}},
{"type":"Feature","geometry":{"type":"Polygon","coordinates":[[[-123.5477,46.2591],[-123.7181,46.189],[-123.7576,46.213],[-123.9592,46.1417],[-123.9293,46.042],[-123.9676,45.9078],[-123.9394,45.7088],[-123.9765,45.4897],[-123.9754,45.1455],[-124.0741,44.7981],[-124.065,44.6325],[-124.1152,44.2865],[-124.1503,43.9109],[-124.2335,43.5571],[-124.2869,43.4363],[-124.4004,43.3021],[-124.3825,43.2702],[-124.4809,42.9515],[-124.5524,42.8406],[-124.51,42.7347],[-124.4131,42.6579],[-124.3991,42.5399],[-124.4351,42.4402],[-124.411,42.2505],[-124.3143,42.0679],[-124.2116,41.9985],[-123.657,41.9951],[-122.5011,42.0085],[-121.4396,41.9971],[-121.0352,41.9933],[-119.9992,41.9945],[-118.7759,41.9927],[-117.6237,41.9985],[-117.0262,41.9999],[-117.0267,43.0251],[-117.0236,43.8238],[-116.9373,44.0294],[-116.9774,44.0854],[-116.8959,44.1543],[-116.972,44.2357],[-117.0594,44.2372],[-117.243,44.391],[-117.2259,44.4794],[-117.1429,44.5572],[-117.0623,44.7271],[-116.9318,44.7872],[-116.8336,44.929],[-116.8413,45.0309],[-116.7546,45.114],[-116.6746,45.3143],[-116.4635,45.6158],[-116.593,45.7785],[-116.7875,45.8402],[-116.916,45.9954],[-117.3539,45.9963],[-118.9871,45.9999],[-119.1261,45.9329],[-119.2571,45.9399],[-119.4878,45.9063],[-119.6005,45.9196],[-119.6699,45.8569],[-119.9657,45.8244],[-120.2108,45.726],[-120.5059,45.7],[-120.5912,45.7465],[-120.8557,45.6715],[-121.0849,45.6479],[-121.5331,45.7265],[-121.7351,45.694],[-121.8113,45.7068],[-122.1017,45.5835],[-122.2626,45.5443],[-122.6439,45.6097],[-122.7745,45.6804],[-122.7615,45.7592],[-122.814,45.961],[-122.9041,46.0837],[-123.1159,46.1853],[-123.2802,46.1448],[-123.4308,46.1818],[-123.5477,46.2591]]]},"properties":{"NAME":"Oregon","STUSPS":"OR","STATEFP":"41"}},
{"type":"Feature","geometry":{"type":"Polygon","coordinates":[[[-94.043,33.0192],[-94.0418,31.9924],[-93.9096,31.8931],[-93.8034,31.7007],[-93.8349,31.5862],[-93.6681,31.3751],[-93.6754,31.301],[-93.5351,31.1856],[-93.5309,30.9245],[-93.6299,30.6799],[-93.7292,30.5448],[-93.7027,30.4299],[-93.7603,30.3299],[-93.7072,30.2755],[-93.7039,30.0543],[-93.8078,29.9545],[-93.8304,29.8944],[-93.9292,29.803],[-93.838,29.6906],[-93.7419,29.7363],[-93.5385,29.7633],[-93.1769,29.7705],[-92.9931,29.7238],[-92.6845,29.605],[-92.3235,29.5315],[-92.1586,29.5816],[-92.0645,29.5857],[-91.8216,29.4739],[-91.7111,29.5693],[-91.8733,29.6273],[-91.8531,29.7029],[-91.6671,29.7458],[-91.531,29.5315],[-91.461,29.47],[-91.3943,29.4971],[-91.3341,29.3915],[-91.3349,29.2988],[-91.2788,29.2478],[-91.094,29.1877],[-90.9419,29.1624],[-90.8679,29.0561],[-90.4427,29.0561],[-90.2236,29.0851],[-89.8426,29.3188],[-89.6397,29.2905],[-89.4828,29.2151],[-89.3611,29.0718],[-89.1488,29.0297],[-89.0143,29.1669],[-89.1167,29.2195],[-89.2004,29.3444],[-89.3121,29.388],[-89.4823,29.4062],[-89.5696,29.494],[-89.6021,29.6103],[-89.404,29.6818],[-89.3992,29.7706],[-89.2933,29.8031],[-89.2363,29.8771],[-89.1858,30.0639],[-89.2332,30.135],[-89.3422,30.0592],[-89.4446,30.061],[-89.5744,29.9837],[-89.5981,29.8814],[-89.7017,29.8741],[-89.8526,29.9527],[-89.8451,30.0184],[-89.6837,30.076],[-89.5245,30.1808],[-89.6077,30.2171],[-89.7125,30.4775],[-89.7917,30.5515],[-89.8363,30.7272],[-89.7281,31.0024],[-90.7588,30.9996],[-91.6369,30.9994],[-91.5604,31.0495],[-91.6217,31.1369],[-91.6444,31.2344],[-91.5089,31.2916],[-91.5361,31.3384],[-91.5171,31.4984],[-91.4376,31.5462],[-91.3595,31.7994],[-91.1811,31.9201],[-91.0347,32.1011],[-91.1085,32.2082],[-90.9912,32.2147],[-90.9212,32.3421],[-90.966,32.4248],[-91.0529,32.4384],[-91.1137,32.74],[-91.1576,32.776],[-91.0721,32.9378],[-91.1661,33.0041],[-92.2228,33.0091],[-93.3771,33.0182],[-94.043,33.0192]]]},"properties":{"NAME":"Louisiana","STUSPS":"LA","STATEFP":"22"}},
{"type":"Feature","geometry":{"type":"Polygon","coordinates":[[[-79.762,42.2699],[-79.7613,41.9988],[-79.0613,41.9988],[-77.832,41.9985],[-76.4622,41.9989],[-75.4771,41.9994],[-75.3411,41.9928],[-75.263,41.8851],[-75.1134,41.8407],[-75.0534,41.7525],[-75.0439,41.5751],[-74.9825,41.4965],[-74.7349,41.4258],[-74.6949,41.3574],[-74.302,41.1726],[-73.894,40.9972],[-73.9381,40.8747],[-74.0868,40.6516],[-74.2022,40.6309],[-74.2606,40.5024],[-74.1126,40.5476],[-74.0573,40.5975],[-73.9406,40.5429],[-73.7749,40.5908],[-73.5073,40.5934],[-73.3515,40.6305],[-73.2084,40.6309],[-73.0125,40.6797],[-71.937,41.0061],[-72.0957,41.054],[-72.2831,41.0679],[-72.3541,41.14],[-72.5853,40.9976],[-72.8598,40.9661],[-73.1104,40.9719],[-73.2293,40.9051],[-73.3929,40.9553],[-73.7137,40.8701],[-73.7568,40.9126],[-73.6573,40.9852],[-73.7278,41.1007],[-73.4827,41.2128],[-73.551,41.2954],[-73.4873,42.0496],[-73.5081,42.0863],[-73.265,42.7459],[-73.2787,42.8334],[-73.242,43.5349],[-73.3277,43.6259],[-73.4145,43.6582],[-73.3507,43.7705],[-73.4369,44.0426],[-73.3954,44.1669],[-73.3166,44.2578],[-73.3346,44.3569],[-73.2936,44.4406],[-73.39,44.6196],[-73.3344,44.8022],[-73.3798,44.857],[-73.3431,45.0108],[-74.2341,44.9921],[-74.8347,45.0147],[-74.9928,44.9774],[-75.2555,44.8577],[-75.4239,44.7563],[-75.7662,44.5159],[-75.8341,44.4224],[-75.9495,44.3491],[-76.1618,44.2808],[-76.2865,44.2038],[-76.3707,44.1005],[-76.3756,44.0315],[-76.2793,43.9725],[-76.4121,43.9257],[-76.2293,43.8041],[-76.1966,43.6498],[-76.2358,43.5293],[-76.4176,43.5213],[-76.6308,43.4134],[-76.6849,43.3527],[-76.9522,43.2707],[-77.3411,43.2807],[-77.551,43.2358],[-77.7602,43.3412],[-78.1452,43.3755],[-78.5474,43.3695],[-79.0705,43.2625],[-79.0446,43.1533],[-79.0745,43.0779],[-79.02,42.9948],[-78.9092,42.9333],[-78.8514,42.7918],[-79.0489,42.6892],[-79.1386,42.5645],[-79.3819,42.4665],[-79.4535,42.4112],[-79.762,42.2699]]]},"properties":{"NAME":"New York","STUSPS":"NY","STATEFP":"36"}},
{"type":"Feature","geometry":{"type":"Polygon","coordinates":[[[-116.916,45.9954],[-116.7875,45.8402],[-116.593,45.7785],[-116.4635,45.6158],[-116.6746,45.3143],[-116.7546,45.114],[-116.8413,45.0309],[-116.8336,44.929],[-116.9318,44.7872],[-117.0623,44.7271],[-117.1429,44.5572],[-117.2259,44.4794],[-117.243,44.391],[-117.0594,44.2372],[-116.972,44.2357],[-116.8959,44.1543],[-116.9774,44.0854],[-116.9373,44.0294],[-117.0236,43.8238],[-117.0267,43.0251],[-117.0262,41.9999],[-115.8702,41.9968],[-114.5983,41.9945],[-114.0417,41.9937],[-113.818,41.9886],[-113,41.9982],[-112.1095,41.9976],[-111.0467,42.0016],[-111.0436,42.7226],[-111.0446,43.3157],[-111.049,44.4741],[-111.1227,44.4937],[-111.3237,44.7245],[-111.4388,44.7205],[-111.5628,44.5552],[-111.7042,44.5602],[-111.8079,44.5117],[-111.8705,44.564],[-112.1251,44.5285],[-112.2862,44.5685],[-112.4732,44.48],[-112.7078,44.503],[-112.8818,44.3803],[-113.0068,44.4717],[-113.0493,44.6294],[-113.1314,44.7647],[-113.2472,44.823],[-113.4224,44.8426],[-113.4746,44.9108],[-113.452,45.0592],[-113.5747,45.1284],[-113.7356,45.3253],[-113.8067,45.6021],[-113.9716,45.7006],[-114.015,45.654],[-114.2792,45.4806],[-114.5063,45.5592],[-114.5381,45.6068],[-114.5049,45.7222],[-114.5625,45.7799],[-114.423,45.8554],[-114.4023,45.9615],[-114.4802,46.0303],[-114.4225,46.3871],[-114.3848,46.4118],[-114.3207,46.647],[-114.5473,46.6445],[-114.6267,46.7129],[-114.7672,46.7388],[-114.9433,46.868],[-115.0317,46.9715],[-115.3269,47.2559],[-115.471,47.2849],[-115.5786,47.367],[-115.7103,47.4178],[-115.6347,47.4818],[-115.717,47.5327],[-115.7238,47.6967],[-115.8354,47.761],[-116.0492,47.9999],[-116.0492,49.0009],[-117.0324,48.9992],[-117.0353,48.4227],[-117.0416,47.7353],[-117.0398,47.1273],[-117.0355,46.41],[-117.0627,46.3536],[-116.924,46.1709],[-116.982,46.0849],[-116.916,45.9954]]]},"properties":{"NAME":"Idaho","STUSPS":"ID","STATEFP":"16"}},
{"type":"Feature","geometry":{"type":"Polygon","coordinates":[[[-77.1198,38.9343],[-77.0391,38.8681],[-77.039,38.7916],[-76.9094,38.8929],[-77.041,38.9955],[-77.1198,38.9343]]]},"properties":{"NAME":"District of Columbia","STUSPS":"DC","STATEFP":"11"}},
{"type":"Feature","geometry":{"type":"Polygon","coordinates":[[[-91.1661,33.0041],[-91.0721,32.9378],[-91.1576,32.776],[-91.1137,32.74],[-91.0529,32.4384],[-90.966,32.4248],[-90.9212,32.3421],[-90.9912,32.2147],[-91.1085,32.2082],[-91.0347,32.1011],[-91.1811,31.9201],[-91.3595,31.7994],[-91.4376,31.5462],[-91.5171,31.4984],[-91.5361,31.3384],[-91.5089,31.2916],[-91.6444,31.2344],[-91.6217,31.1369],[-91.5604,31.0495],[-91.6369,30.9994],[-90.7588,30.9996],[-89.7281,31.0024],[-89.8363,30.7272],[-89.7917,30.5515],[-89.7125,30.4775],[-89.6077,30.2171],[-89.5245,30.1808],[-89.4475,30.2051],[-89.3447,30.2932],[-89.0832,30.3681],[-88.8939,30.3934],[-88.8188,30.3606],[-88.4719,30.32],[-88.395,30.3694],[-88.432,31.1143],[-88.4687,31.7907],[-88.4687,31.9332],[-88.3892,32.5781],[-88.3171,33.1841],[-88.2072,34.0583],[-88.0979,34.8922],[-88.2001,34.9956],[-89.435,34.9938],[-90.3093,34.9957],[-90.2501,34.9073],[-90.4735,34.7888],[-90.5872,34.6157],[-90.5492,34.5681],[-90.5753,34.4152],[-90.7291,34.3642],[-90.7527,34.2893],[-90.8946,34.2244],[-90.9463,34.1094],[-90.8924,34.0269],[-91.005,33.977],[-91.0612,33.8775],[-91.0268,33.7636],[-91.1309,33.6109],[-91.2157,33.5294],[-91.1138,33.3931],[-91.1255,33.2803],[-91.0687,33.2329],[-91.1204,33.0545],[-91.1661,33.0041]]]},"properties":{"NAME":"Mississippi","STUSPS":"MS","STATEFP":"28"}},
{"type":"Feature","geometry":{"type":"Polygon","coordinates":[[[-104.0531,43.0006],[-104.0528,42.25],[-104.0528,41.6978],[-104.0532,41.0014],[-103.5745,41.0017],[-102.5568,41.0022],[-102.0516,41.0024],[-102.0517,40.0031],[-101.0603,40.0023],[-99.8134,40.0014],[-99.067,40.0021],[-98.076,40.0023],[-97.3692,40.0019],[-96.4699,40.001],[-95.3083,40],[-95.383,40.0271],[-95.3942,40.1083],[-95.4725,40.2361],[-95.6537,40.3226],[-95.6494,40.3961],[-95.7656,40.5852],[-95.7819,40.6533],[-95.8887,40.7363],[-95.8342,40.783],[-95.8107,40.8867],[-95.8659,41.0174],[-95.8568,41.1871],[-95.9257,41.3222],[-95.9225,41.4558],[-96.1181,41.6135],[-96.0645,41.793],[-96.1591,41.9101],[-96.1325,41.9746],[-96.2729,42.0472],[-96.2689,42.1136],[-96.3478,42.1668],[-96.336,42.2648],[-96.408,42.3374],[-96.3813,42.4617],[-96.4455,42.4906],[-96.6115,42.5061],[-96.7093,42.6038],[-96.6976,42.6591],[-96.9068,42.7338],[-97.1313,42.7719],[-97.2379,42.8531],[-97.701,42.8438],[-97.858,42.8651],[-97.9501,42.7696],[-98.035,42.7642],[-98.1481,42.84],[-98.4345,42.9292],[-98.4985,42.9986],[-99.2545,42.9982],[-100.1984,42.998],[-101.0004,42.9975],[-102.0825,42.9991],[-103.0006,43.0003],[-104.0531,43.0006]]]},"properties":{"NAME":"Nebraska","STUSPS":"NE","STATEFP":"31"}},
{"type":"Feature","geometry":{"type":"Polygon","coordinates":[[[-109.0501,41.0007],[-109.0506,39.875],[-109.0515,39.1261],[-109.0601,38.2755],[-109.0418,38.1647],[-109.0438,37.4848],[-109.0452,36.9991],[-108.0006,37],[-106.8773,37.0001],[-106.8698,36.9924],[-106.0063,36.9954],[-104.732,36.9934],[-103.7332,36.998],[-103.0022,37.0001],[-102.0422,36.9931],[-102.042,37.7385],[-102.0457,38.6976],[-102.05,39.5741],[-102.0517,40.0031],[-102.0516,41.0024],[-102.5568,41.0022],[-103.5745,41.0017],[-104.0532,41.0014],[-104.8553,40.998],[-106.1906,40.9977],[-107.3674,41.0031],[-108.2506,41.0001],[-109.0501,41.0007]]]},"properties":{"NAME":"Colorado","STUSPS":"CO","STATEFP":"08"}},
{"type":"Feature","geometry":{"type":"Polygon","coordinates":[[[-104.0577,44.9974],[-105.0253,45.0003],[-106.2636,44.9938],[-106.8888,44.9959],[-107.9115,45.0015],[-108.6215,44.9997],[-109.1034,45.0059],[-109.995,45.0032],[-110.7053,44.9923],[-111.0443,45.0013],[-111.0569,44.8667],[-111.049,44.4741],[-111.0446,43.3157],[-111.0436,42.7226],[-111.0467,42.0016],[-111.0467,40.998],[-110.5398,40.9963],[-109.7154,40.9982],[-109.0501,41.0007],[-108.2506,41.0001],[-107.3674,41.0031],[-106.1906,40.9977],[-104.8553,40.998],[-104.0532,41.0014],[-104.0528,41.6978],[-104.0528,42.25],[-104.0531,43.0006],[-104.055,43.5586],[-104.0554,44.25],[-104.0577,44.9974]]]},"properties":{"NAME":"Wyoming","STUSPS":"WY","STATEFP":"56"}},
{"type":"Feature","geometry":{"type":"Polygon","coordinates":[[[-82.5937,38.4218],[-82.5818,38.2486],[-82.6262,38.1348],[-82.465,37.9769],[-82.4876,37.917],[-82.3274,37.7622],[-82.2961,37.6862],[-82.0644,37.5445],[-81.9683,37.5378],[-81.9849,37.4543],[-81.8499,37.2852],[-81.7747,37.2748],[-81.6786,37.2025],[-81.5606,37.2067],[-81.4279,37.271],[-81.3622,37.3377],[-81.2251,37.2349],[-81.1126,37.2785],[-80.9193,37.3062],[-80.8364,37.4244],[-80.7701,37.3724],[-80.5448,37.4747],[-80.4648,37.4261],[-80.2916,37.5365],[-80.2234,37.6232],[-80.2923,37.6837],[-80.1996,37.8275],[-79.9712,38.0443],[-79.9162,38.1844],[-79.7875,38.2733],[-79.6897,38.4314],[-79.6491,38.5915],[-79.5426,38.5532],[-79.4766,38.4572],[-79.2978,38.4164],[-79.2316,38.474],[-79.093,38.6595],[-78.999,38.8401],[-78.8693,38.763],[-78.7728,38.8937],[-78.5617,39.009],[-78.4139,39.1584],[-78.4018,39.2768],[-78.3405,39.3535],[-78.3471,39.466],[-77.8282,39.1323],[-77.7195,39.3213],[-77.8238,39.5259],[-77.8298,39.5873],[-78.0067,39.6013],[-78.0823,39.6712],[-78.383,39.6222],[-78.461,39.526],[-78.7071,39.5559],[-78.7711,39.6384],[-78.9426,39.4796],[-79.0913,39.4724],[-79.2837,39.3096],[-79.4869,39.206],[-79.4767,39.7211],[-80.5193,39.7214],[-80.519,40.6388],[-80.668,40.5825],[-80.6049,40.4467],[-80.6066,40.3039],[-80.7368,40.0801],[-80.7401,39.9708],[-80.8034,39.9188],[-80.8298,39.7118],[-80.8656,39.6628],[-81.076,39.5097],[-81.1285,39.4494],[-81.3476,39.3458],[-81.4561,39.4093],[-81.6783,39.2738],[-81.8079,39.084],[-81.7757,38.9807],[-81.8985,38.9296],[-82.0071,39.0296],[-82.0891,38.976],[-82.1616,38.8246],[-82.2093,38.8027],[-82.1752,38.6085],[-82.2743,38.5937],[-82.324,38.4493],[-82.5607,38.4043],[-82.5937,38.4218]]]},"properties":{"NAME":"West Virginia","STUSPS":"WV","STATEFP":"54"}},
{"type":"Feature","geometry":{"type":"MultiPolygon","coordinates":[[[[179.4813,51.9753],[179.4846,51.9213],[179.6495,51.8737],[179.7739,51.9707],[179.6368,52.0257],[179.4813,51.9753]]],[[[178.6005,51.6553],[178.6049,51.616],[178.7724,51.5541],[178.8692,51.557],[179.0315,51.4499],[179.2533,51.3372],[179.4804,51.3639],[179.4182,51.4162],[179.2958,51.4192],[178.9253,51.6239],[178.6606,51.6831],[178.6005,51.6553]]],[[[177.2131,51.9204],[177.3342,51.8668],[177.4095,51.9308],[177.601,51.9223],[177.5721,52.0018],[177.676,52.0922],[177.5813,52.1449],[177.4605,51.9998],[177.2131,51.9204]]],[[[173.439,52.4705],[173.3199,52.4121],[173.6513,52.3564],[173.7728,52.5099],[173.6381,52.5242],[173.439,52.4705]]],[[[172.4589,52.9545],[172.7542,52.8775],[172.7634,52.8237],[172.9036,52.7617],[173.1669,52.7952],[173.2049,52.8489],[173.4254,52.8683],[173.122,52.9904],[172.6433,53.005],[172.4589,52.9545]]],[[[-133.935,55.9207],[-133.9202,55.8603],[-133.7005,55.8374],[-133.6433,55.729],[-133.7167,55.6602],[-133.7891,55.4579],[-133.6309,55.4161],[-133.5866,55.3088],[-133.4045,55.215],[-133.2325,55.1988],[-133.2397,55.0924],[-133.1648,54.9769],[-132.8664,54.7004],[-132.6743,54.6747],[-132.639,54.7533],[-132.4035,54.7846],[-132.3079,54.7187],[-132.0297,54.7012],[-131.9579,54.7912],[-131.9846,55.028],[-132.0275,55.1047],[-131.9774,55.1809],[-132.0371,55.2751],[-132.1264,55.2884],[-132.2581,55.4161],[-132.1429,55.4579],[-132.3011,55.551],[-132.3825,55.6653],[-132.4625,55.6739],[-132.4707,55.7822],[-132.6185,55.9115],[-132.8376,56.0243],[-132.8876,56.1729],[-133.0782,56.2468],[-133.197,56.333],[-133.5821,56.3525],[-133.6564,56.3269],[-133.6592,56.0838],[-133.8164,55.964],[-133.935,55.9207]]],[[[-134.393,56.8643],[-134.4185,56.8223],[-134.3201,56.5545],[-134.198,56.531],[-134.2947,56.3359],[-134.2597,56.1344],[-134.2022,56.0352],[-134.2918,55.9262],[-134.1181,55.9146],[-134.0874,56.0949],[-133.9605,56.0914],[-133.8216,56.3916],[-133.6555,56.4423],[-133.1835,56.4542],[-133.0417,56.5184],[-132.8068,56.5055],[-132.6712,56.5431],[-132.6193,56.6608],[-132.9032,56.8036],[-132.9814,56.9274],[-133.1046,57.0057],[-133.3343,57.0024],[-133.888,57.0977],[-134.0492,57.0292],[-133.9215,56.9615],[-133.869,56.8459],[-133.9429,56.8056],[-134.0478,56.923],[-134.2705,56.9356],[-134.393,56.8643]]],[[[-134.9605,58.4038],[-134.9582,58.3221],[-134.7838,58.0823],[-134.6954,57.6853],[-134.5555,57.4074],[-134.6402,57.2399],[-134.6346,57.1099],[-134.4977,57.0312],[-134.3784,57.115],[-134.1936,57.1849],[-133.9835,57.3028],[-133.8757,57.2676],[-133.8716,57.4842],[-133.8083,57.6096],[-133.8968,57.6855],[-133.9049,57.8074],[-134.184,58.0773],[-134.1744,58.1253],[-134.6089,58.1716],[-134.7358,58.2346],[-134.9605,58.4038]]],[[[-136.5632,58.0351],[-136.5733,57.9268],[-136.3724,57.8326],[-136.2382,57.626],[-136.0881,57.5553],[-135.8921,57.408],[-135.8377,57.2821],[-135.8705,57.2216],[-135.755,57.124],[-135.8446,57.0836],[-135.856,56.9956],[-135.6369,57.0099],[-135.5715,57.1057],[-135.3534,57.0209],[-135.5507,56.8412],[-135.3622,56.7587],[-135.1234,56.6028],[-134.8102,56.245],[-134.674,56.1669],[-134.6347,56.2658],[-134.6297,56.7096],[-134.8549,57.2648],[-134.8249,57.5001],[-135.005,57.8843],[-134.9264,57.9219],[-134.9508,58.037],[-135.1089,58.0883],[-135.2758,58.097],[-135.7124,58.2319],[-136.0337,58.2767],[-136.3871,58.2524],[-136.3655,58.1489],[-136.5387,58.0935],[-136.5632,58.0351]]],[[[-152.0641,60.4171],[-151.9563,60.3678],[-151.8392,60.4859],[-151.9525,60.5106],[-152.0641,60.4171]]],[[[-153.5974,59.3868],[-153.5153,59.3209],[-153.3869,59.3308],[-153.4125,59.4151],[-153.5974,59.3868]]],[[[-154.7797,57.3663],[-154.7938,57.2889],[-154.595,57.2572],[-154.5234,57.1291],[-154.5285,57.0019],[-154.3129,56.9187],[-154.3057,56.8469],[-154.017,56.6893],[-153.8396,56.8221],[-153.5415,56.8879],[-153.5808,57.049],[-153.4043,57.0805],[-153.342,56.9828],[-153.0643,57.1038],[-152.9005,57.1321],[-152.9435,57.257],[-152.6957,57.2813],[-152.5705,57.4489],[-152.4749,57.4342],[-152.3237,57.3427],[-152.2536,57.384],[-152.3237,57.4679],[-152.1597,57.5936],[-152.314,57.6364],[-152.4402,57.7266],[-152.2122,57.7914],[-152.3512,57.8348],[-152.3241,57.9166],[-152.4226,57.9487],[-152.8048,57.8992],[-152.7225,57.9874],[-152.7667,58.0299],[-152.529,58.0938],[-152.1122,58.1486],[-152.0341,58.1837],[-151.8623,58.1683],[-151.8171,58.2634],[-152.1293,58.3964],[-152.3873,58.3595],[-152.5125,58.4273],[-152.3876,58.5229],[-152.3547,58.6383],[-152.6161,58.6019],[-152.6403,58.4699],[-152.8831,58.4004],[-153.4198,58.0596],[-153.299,57.9856],[-153.3864,57.9365],[-153.6488,57.8801],[-153.7814,57.8764],[-153.9352,57.813],[-153.9303,57.6968],[-153.9946,57.6569],[-154.197,57.6646],[-154.5221,57.5778],[-154.7797,57.3663]]],[[[-154.8404,56.4203],[-154.7429,56.4017],[-154.5295,56.5027],[-154.0209,56.482],[-153.8877,56.5336],[-154.0958,56.6178],[-154.5141,56.6041],[-154.7061,56.5213],[-154.8404,56.4203]]],[[[-155.75,55.8218],[-155.591,55.7617],[-155.5306,55.9122],[-155.6054,55.9288],[-155.75,55.8218]]],[[[-160.2527,54.9133],[-160.027,55.0209],[-159.8136,55.0275],[-159.7528,55.0661],[-159.5044,55.0273],[-159.448,54.9414],[-159.3097,54.8658],[-159.2032,54.9148],[-159.4888,55.1888],[-159.8164,55.1781],[-159.8706,55.2849],[-160.1371,55.1716],[-160.2527,54.9133]]],[[[-160.8566,55.3185],[-160.8214,55.1179],[-160.6556,55.1603],[-160.5252,55.1299],[-160.5276,55.2564],[-160.3065,55.3033],[-160.154,55.3775],[-160.137,55.4507],[-160.2606,55.4637],[-160.5175,55.3794],[-160.6874,55.4022],[-160.8566,55.3185]]],[[[-161.0785,58.6356],[-161.0756,58.5499],[-160.8805,58.5813],[-160.6793,58.7802],[-160.7006,58.8174],[-161.0566,58.7022],[-161.0785,58.6356]]],[[[-162.8444,54.5104],[-162.8617,54.4248],[-162.7602,54.3722],[-162.4669,54.3427],[-162.3448,54.4013],[-162.8444,54.5104]]],[[[-165.6022,54.0453],[-165.5558,54.0236],[-165.2877,54.0383],[-165.0883,54.0725],[-164.9561,54.061],[-164.8162,54.1588],[-165.2808,54.1156],[-165.6022,54.0453]]],[[[-166.0615,54.1851],[-166.1122,54.1225],[-166.0464,54.0442],[-165.5492,54.1122],[-165.3837,54.1967],[-165.4785,54.2953],[-165.6255,54.299],[-165.8682,54.2149],[-166.0615,54.1851]]],[[[-167.4306,60.197],[-167.3333,60.0666],[-166.7952,59.9132],[-166.5128,59.8464],[-166.3621,59.8386],[-166.1904,59.7502],[-166.085,59.8396],[-165.5823,59.9082],[-165.5326,59.9534],[-165.7092,60.066],[-165.6799,60.2924],[-165.8831,60.3434],[-166.0373,60.3195],[-166.1498,60.4367],[-166.3719,60.3552],[-166.4904,60.3895],[-166.6166,60.3192],[-166.8358,60.2688],[-166.8426,60.2105],[-167.3176,60.2315],[-167.4306,60.197]]],[[[-167.7909,53.3355],[-167.6222,53.2504],[-167.4882,53.2691],[-167.4177,53.3299],[-167.1663,53.4128],[-166.7492,53.4409],[-166.581,53.5304],[-166.4449,53.6406],[-166.1387,53.7311],[-166.0975,53.8269],[-166.32,53.8695],[-166.0753,53.9696],[-166.3571,54.0023],[-166.5084,53.9239],[-166.6446,54.0145],[-166.7426,54.0155],[-167.0313,53.9452],[-167.142,53.8269],[-167.0058,53.7554],[-167.1616,53.6059],[-167.1357,53.5512],[-167.2788,53.4786],[-167.7909,53.3355]]],[[[-168.1289,65.6557],[-168.0476,65.5691],[-167.8512,65.5382],[-167.474,65.4127],[-167.0677,65.3851],[-166.7507,65.3332],[-166.4394,65.3191],[-166.4799,65.1672],[-166.6344,65.1259],[-166.9119,65.126],[-166.6978,64.9912],[-166.4322,64.8832],[-166.4827,64.7551],[-166.4139,64.6512],[-166.2369,64.5836],[-165.2916,64.4807],[-165.002,64.4339],[-164.8077,64.4494],[-164.3073,64.5615],[-163.9744,64.5514],[-163.6863,64.5688],[-163.4129,64.525],[-163.1332,64.3818],[-162.9408,64.5424],[-162.8576,64.4998],[-162.7684,64.3335],[-162.6322,64.3857],[-162.54,64.5309],[-162.2345,64.6193],[-162.1881,64.6724],[-161.8784,64.7095],[-161.6455,64.7765],[-161.377,64.773],[-161.1331,64.8982],[-160.936,64.8224],[-160.7834,64.7172],[-160.7934,64.6193],[-161.198,64.4966],[-161.3899,64.5478],[-161.5049,64.4231],[-161.2635,64.3982],[-160.962,64.2206],[-160.9411,64.0663],[-160.7656,63.8287],[-160.7833,63.7529],[-161.1912,63.4901],[-161.4211,63.4602],[-161.9822,63.4463],[-162.0732,63.5138],[-162.2524,63.5418],[-162.4012,63.6344],[-162.7076,63.5776],[-162.3523,63.4541],[-162.5266,63.3166],[-163.054,63.0583],[-163.3162,63.0378],[-163.7326,63.2133],[-164.067,63.2623],[-164.4424,63.2027],[-164.6074,63.1129],[-164.8756,62.8063],[-164.8377,62.6853],[-164.9624,62.6582],[-165.0962,62.5225],[-165.2693,62.4274],[-165.672,62.1399],[-165.7543,62.056],[-165.7435,61.9625],[-165.6395,61.847],[-165.9409,61.8491],[-166.0943,61.8139],[-166.2118,61.6084],[-166.0754,61.493],[-165.9125,61.5562],[-165.7464,61.4893],[-165.9212,61.4031],[-165.8314,61.3067],[-165.6233,61.2784],[-165.6403,61.1381],[-165.3854,61.0796],[-165.3256,61.1693],[-165.2038,61.1503],[-165.0578,61.0597],[-165.1949,60.9739],[-165.0851,60.9138],[-164.9917,60.6988],[-165.2064,60.6102],[-165.3677,60.5812],[-165.363,60.5069],[-165.1294,60.4337],[-164.9845,60.3499],[-164.6989,60.2963],[-164.5176,60.1995],[-164.411,60.0977],[-164.1318,59.9912],[-164.2085,59.9345],[-164.1334,59.8456],[-163.9308,59.8039],[-163.4581,59.81],[-163.1726,59.8451],[-162.8085,59.9339],[-162.7374,59.9723],[-162.5153,59.9762],[-162.4942,60.1303],[-162.3722,60.167],[-162.2284,60.0563],[-161.8739,59.6495],[-161.7025,59.4909],[-161.7904,59.4682],[-161.9929,59.3384],[-162.0486,59.2542],[-161.804,58.9917],[-161.7648,58.8462],[-161.8241,58.7345],[-162.1717,58.6484],[-162.0274,58.6071],[-161.8022,58.6123],[-161.752,58.5518],[-161.3723,58.6662],[-161.338,58.7429],[-160.731,58.9212],[-160.3178,59.0705],[-160.3229,58.954],[-160.1505,58.8661],[-159.7929,58.824],[-159.7121,58.9295],[-159.4098,58.7736],[-159.0633,58.4231],[-158.8809,58.3907],[-158.7041,58.4828],[-158.8612,58.6956],[-158.7801,58.7538],[-158.7677,58.8643],[-158.6197,58.911],[-158.5648,58.8027],[-158.3769,58.748],[-158.3321,58.6653],[-158.1403,58.615],[-157.1169,58.8675],[-156.9935,58.8368],[-157.0622,58.7402],[-157.3136,58.565],[-157.4815,58.4808],[-157.5472,58.2775],[-157.4801,58.2174],[-157.5966,58.0887],[-157.7092,57.6575],[-157.6789,57.5639],[-157.9316,57.4762],[-158.0838,57.3572],[-158.3202,57.2816],[-158.5313,57.1322],[-158.6793,56.9886],[-158.6564,56.81],[-158.8533,56.7926],[-158.9727,56.8421],[-159.535,56.6265],[-159.828,56.5439],[-159.9856,56.4497],[-160.1463,56.4002],[-160.3859,56.2797],[-160.4887,56.0772],[-160.5896,55.983],[-160.4572,55.9172],[-160.564,55.8637],[-160.7932,55.886],[-160.8071,56.024],[-161.1569,56.0122],[-161.8078,55.892],[-161.899,55.8335],[-162.2196,55.7109],[-162.5654,55.4668],[-162.6416,55.3926],[-162.9,55.2525],[-162.8615,55.1983],[-163.132,55.1796],[-163.3147,55.1263],[-163.2808,55.033],[-163.4295,54.9548],[-163.5271,55.0409],[-163.7741,55.0558],[-163.9942,54.9833],[-164.1192,54.9694],[-164.3435,54.8941],[-164.4353,54.9331],[-164.5763,54.8953],[-164.5769,54.8246],[-164.7418,54.6454],[-164.9488,54.5799],[-164.8615,54.4314],[-164.6405,54.3912],[-164.3527,54.465],[-164.2576,54.5727],[-164.0383,54.6247],[-163.8036,54.6365],[-163.5724,54.6232],[-163.069,54.7126],[-163.2546,54.8389],[-162.9622,54.9935],[-162.8342,54.9269],[-162.588,54.972],[-162.4135,55.0366],[-162.4282,54.8954],[-162.3493,54.836],[-162.2368,54.8816],[-162.2193,55.029],[-162.1187,55.1029],[-161.9566,55.1122],[-161.7923,55.0523],[-161.5766,55.1038],[-161.8172,55.1765],[-161.8633,55.267],[-161.6865,55.408],[-161.7001,55.5144],[-161.587,55.6201],[-161.3926,55.6282],[-161.3761,55.5698],[-161.4693,55.4968],[-161.4861,55.3593],[-161.254,55.3559],[-160.9766,55.4727],[-160.6669,55.4598],[-160.5213,55.4744],[-160.3926,55.6028],[-160.1304,55.6814],[-160.0263,55.7923],[-159.8474,55.8025],[-159.7703,55.8524],[-159.6275,55.8032],[-159.6732,55.751],[-159.6967,55.5733],[-159.5328,55.6764],[-159.0862,55.8349],[-159.0962,55.9148],[-158.8981,55.951],[-158.6532,55.9586],[-158.4315,55.9945],[-158.3743,56.1345],[-158.1178,56.2307],[-158.2074,56.2944],[-158.4895,56.3419],[-158.4384,56.4275],[-158.2847,56.4811],[-158.1274,56.4608],[-157.8178,56.5142],[-157.9185,56.6431],[-157.7918,56.6707],[-157.6746,56.6095],[-157.4965,56.6169],[-157.5308,56.7538],[-157.2905,56.8047],[-157.1836,56.7691],[-157.0346,56.8845],[-156.826,56.8977],[-156.7042,56.9871],[-156.5505,56.9846],[-156.443,57.1195],[-156.3344,57.1823],[-156.362,57.4005],[-156.2201,57.4453],[-156.0128,57.4514],[-156.0468,57.5257],[-155.7328,57.5497],[-155.7242,57.6334],[-155.6299,57.6564],[-155.6094,57.7777],[-155.354,57.7153],[-155.2729,57.824],[-155.0971,57.8654],[-155.1186,57.9539],[-154.8766,58.0277],[-154.5815,58.0193],[-154.2225,58.1326],[-154.0741,58.3527],[-154.0707,58.44],[-153.9305,58.4975],[-153.8514,58.6119],[-153.5916,58.6401],[-153.445,58.7093],[-153.3694,58.8213],[-153.2674,58.8672],[-153.4799,58.9953],[-153.5965,59.0002],[-153.6957,59.074],[-154.0635,59.0721],[-154.1807,59.1232],[-154.1227,59.2876],[-153.9985,59.3847],[-153.699,59.4636],[-153.7615,59.5434],[-153.5778,59.556],[-153.5425,59.6302],[-153.24,59.6324],[-153.0516,59.6916],[-152.9673,59.8815],[-152.7008,59.9203],[-152.5752,60.0483],[-152.5398,60.2416],[-152.4113,60.2879],[-152.3019,60.4143],[-152.3314,60.4735],[-151.8979,60.7218],[-151.7038,60.7324],[-151.8003,60.8537],[-151.4803,61.0109],[-151.1666,61.0464],[-150.9393,61.2103],[-150.6799,61.2659],[-150.425,61.2456],[-150.2049,61.2595],[-150.2288,61.1626],[-150.0656,61.1511],[-149.7172,61.0113],[-149.9854,60.879],[-150.1941,60.9013],[-150.4019,61.0362],[-150.7058,60.9378],[-151.0626,60.7874],[-151.2613,60.7698],[-151.4103,60.711],[-151.2818,60.496],[-151.3669,60.3727],[-151.4217,60.2129],[-151.718,60.0095],[-151.8695,59.7692],[-151.6431,59.647],[-151.4487,59.6482],[-151.2969,59.6969],[-151.2055,59.6303],[-151.3278,59.573],[-151.8865,59.421],[-151.9841,59.2787],[-151.8581,59.1442],[-151.6624,59.0897],[-151.4334,59.1355],[-151.4706,59.2426],[-151.1262,59.2099],[-150.9422,59.2331],[-150.8228,59.3308],[-150.6809,59.3054],[-150.5812,59.4452],[-150.4301,59.3434],[-150.2808,59.4668],[-149.9194,59.6918],[-149.732,59.7068],[-149.5068,59.7709],[-149.1233,59.9686],[-148.4789,59.9358],[-148.314,60.0339],[-148.2206,59.9764],[-147.9568,59.9594],[-147.8551,59.8719],[-147.9292,59.7839],[-147.5083,59.842],[-147.4522,59.954],[-147.2578,60.1079],[-146.9165,60.291],[-146.694,60.2796],[-146.6077,60.2412],[-146.3933,60.3275],[-145.9885,60.3874],[-145.6392,60.302],[-145.3801,60.3528],[-145.2547,60.3114],[-145.0891,60.32],[-144.9293,60.2283],[-144.6549,60.2049],[-144.4292,60.148],[-144.3489,60.0912],[-144.1103,60.0989],[-143.897,59.9859],[-143.6242,60.0373],[-142.7449,60.0941],[-142.4266,60.0711],[-141.9122,60.0098],[-141.7362,59.9619],[-141.5954,59.9619],[-141.3928,59.87],[-140.7925,59.7286],[-140.2426,59.6879],[-140.1762,59.736],[-139.7768,59.8338],[-139.6085,59.822],[-139.5858,59.6428],[-139.7427,59.6239],[-139.8613,59.5467],[-139.4202,59.3798],[-138.9197,59.2485],[-138.6367,59.1306],[-138.2243,59.0322],[-137.952,58.886],[-137.9418,58.7943],[-137.5682,58.588],[-137.3553,58.4924],[-137.0781,58.3975],[-136.9864,58.404],[-136.8576,58.3164],[-136.5919,58.2179],[-136.5448,58.3167],[-136.4372,58.3024],[-136.1119,58.3425],[-136.0418,58.3802],[-135.7281,58.3971],[-135.6499,58.3245],[-135.4081,58.343],[-135.3065,58.2429],[-135.0879,58.2001],[-135.0491,58.3093],[-135.1044,58.4493],[-134.9369,58.4575],[-134.7506,58.3915],[-134.6312,58.2474],[-134.3756,58.2087],[-134.1467,58.1991],[-134.0496,58.062],[-133.8488,57.9354],[-133.6545,57.7137],[-133.6764,57.6252],[-133.5196,57.5307],[-133.472,57.3687],[-133.5448,57.2426],[-133.4669,57.1594],[-133.3224,57.1127],[-132.9375,57.0483],[-132.7921,56.8562],[-132.5568,56.7572],[-132.529,56.638],[-132.4508,56.5641],[-132.6275,56.4629],[-132.9772,56.4397],[-133.0701,56.331],[-132.8776,56.2403],[-132.7183,56.2177],[-132.7087,56.1121],[-132.5942,56.0219],[-132.4928,56.0664],[-132.3973,55.8789],[-132.28,55.9248],[-132.0674,55.8751],[-132.2651,55.7622],[-132.1832,55.5881],[-131.8442,55.4567],[-131.8622,55.2893],[-131.7483,55.1286],[-131.6053,55.1074],[-131.6219,54.9465],[-131.4915,54.9304],[-131.3276,54.8591],[-131.1952,54.9198],[-131.1605,55.1975],[-131.0938,55.1913],[-130.9971,55.0443],[-130.9325,54.8069],[-130.6367,54.7785],[-130.5292,54.8109],[-130.3395,54.9214],[-130.2215,55.026],[-130.1047,55.189],[-130.0017,55.2646],[-130.0399,55.4294],[-130.1201,55.5639],[-130.1237,55.807],[-130.0132,55.9164],[-130.0043,55.9934],[-130.1028,56.1167],[-130.2455,56.0969],[-130.4256,56.1407],[-130.4669,56.2398],[-130.6225,56.2679],[-130.8107,56.3711],[-131.0857,56.4065],[-131.4618,56.5479],[-131.5812,56.6133],[-131.8351,56.6018],[-131.9018,56.7532],[-131.8717,56.805],[-132.1259,56.8747],[-132.051,57.0512],[-132.3713,57.0952],[-132.2522,57.2157],[-132.368,57.3487],[-132.5592,57.5039],[-132.8693,57.8429],[-133.0764,57.9998],[-133.1764,58.1502],[-133.4615,58.3855],[-133.3799,58.4279],[-133.6998,58.6073],[-133.8404,58.728],[-134.2505,58.858],[-134.401,58.9762],[-134.3798,59.035],[-134.4812,59.1281],[-134.6641,59.1812],[-134.7024,59.2478],[-134.962,59.2804],[-135.0674,59.4219],[-135.0275,59.5637],[-135.2311,59.6972],[-135.4774,59.7996],[-135.9459,59.6638],[-136.3506,59.5993],[-136.2342,59.5247],[-136.3581,59.4498],[-136.4743,59.4642],[-136.4668,59.2843],[-136.5815,59.1649],[-136.8266,59.1584],[-137.2648,59.0024],[-137.4474,58.9095],[-137.6043,59.2431],[-138.5848,59.7525],[-138.7021,59.9102],[-139.0464,59.9982],[-139.2003,60.0907],[-139.0867,60.3577],[-139.6984,60.3404],[-139.9891,60.1852],[-140.4723,60.3106],[-140.5351,60.2242],[-141.0018,60.3061],[-141.002,61.904],[-141.0025,65.8394],[-141.0026,68.4984],[-141.0027,69.6456],[-141.4308,69.6951],[-141.7134,69.7895],[-142.4044,69.9165],[-142.7468,70.0425],[-143.2819,70.1511],[-143.9142,70.1157],[-144.4554,70.0352],[-144.6723,69.9669],[-145.1751,69.9917],[-145.6233,70.0844],[-145.8583,70.166],[-146.0064,70.1404],[-146.5081,70.186],[-146.8858,70.1859],[-147.1616,70.1556],[-147.7651,70.2198],[-147.8637,70.2933],[-148.2035,70.3482],[-148.3514,70.3045],[-148.667,70.4301],[-148.929,70.4268],[-149.4618,70.5183],[-149.8667,70.5108],[-150.0745,70.4393],[-150.3015,70.4184],[-150.5574,70.4816],[-150.9038,70.4609],[-151.1752,70.3756],[-151.5044,70.4311],[-151.7399,70.4362],[-151.6973,70.5477],[-152.4338,70.6169],[-152.4733,70.6837],[-152.1925,70.7953],[-152.4235,70.8587],[-152.9042,70.8839],[-153.2385,70.9225],[-153.4263,70.8901],[-153.8905,70.8857],[-154.1275,70.7781],[-154.2903,70.8215],[-154.5725,70.8259],[-154.5811,71.0073],[-155.0608,71.1454],[-155.2626,71.0791],[-155.5133,70.9406],[-155.543,70.8472],[-155.925,70.8527],[-155.9521,70.9648],[-155.7621,70.9856],[-155.5333,71.0677],[-155.5877,71.1726],[-155.8951,71.1939],[-156.0744,71.2425],[-156.5311,71.2963],[-156.8097,71.2869],[-157.421,70.9768],[-157.7685,70.8758],[-158.0324,70.8323],[-158.5739,70.795],[-159.115,70.8174],[-159.1718,70.8751],[-159.6484,70.7944],[-160.2148,70.5591],[-160.8128,70.3767],[-161.2882,70.2968],[-161.8793,70.3293],[-162.3023,70.2042],[-162.9891,69.8253],[-163.1513,69.6126],[-163.1514,69.4303],[-163.2447,69.3061],[-163.574,69.1241],[-163.927,69.0008],[-164.2532,68.9309],[-165.5224,68.8558],[-166.2242,68.8732],[-166.1934,68.7266],[-166.3285,68.4423],[-166.5918,68.4056],[-166.6009,68.3336],[-166.3131,68.2892],[-166.0895,68.2213],[-165.975,68.1409],[-165.35,68.0259],[-164.5339,67.7256],[-164.0513,67.5664],[-163.8788,67.4161],[-163.702,67.1094],[-163.0117,67.0295],[-162.843,66.9912],[-162.6355,66.9984],[-162.4667,66.951],[-162.6267,66.8596],[-162.5014,66.7425],[-162.1754,66.6878],[-161.8749,66.5114],[-161.9163,66.3495],[-161.6944,66.3962],[-161.3221,66.3686],[-161.0892,66.3151],[-160.994,66.2344],[-161.199,66.2109],[-161.4845,66.2624],[-161.838,66.0226],[-162.1374,66.0785],[-162.3313,66.0314],[-162.6223,66.0395],[-162.7507,66.0902],[-163.1467,66.0595],[-163.4958,66.0854],[-163.6954,66.0596],[-163.9166,66.1905],[-163.8431,66.2599],[-163.8731,66.389],[-163.604,66.5581],[-163.8242,66.5917],[-164.4007,66.5811],[-164.8161,66.525],[-165.4072,66.4204],[-166.0381,66.2695],[-166.7689,66.0686],[-167.2828,65.8974],[-167.6501,65.7957],[-167.9799,65.728],[-168.1289,65.6557]]],[[[-169.2865,52.7847],[-169.2618,52.7549],[-169.005,52.83],[-168.851,52.908],[-168.7555,52.9075],[-168.614,53.0088],[-168.4571,53.0558],[-168.2962,53.2272],[-167.8423,53.3865],[-167.7892,53.5193],[-168.027,53.5628],[-168.3421,53.476],[-168.4451,53.2653],[-168.5819,53.2865],[-168.7633,53.1828],[-168.7852,53.045],[-168.9595,52.9367],[-169.2865,52.7847]]],[[[-169.8183,56.6336],[-169.6858,56.5397],[-169.5826,56.5369],[-169.4743,56.6252],[-169.8183,56.6336]]],[[[-170.1707,52.7849],[-170.0777,52.7204],[-169.9515,52.7886],[-169.7039,52.7771],[-169.6665,52.8643],[-169.68,53.0351],[-169.8576,52.9085],[-170.0263,52.9449],[-170.0922,52.9194],[-170.1707,52.7849]]],[[[-170.42,57.2129],[-170.2863,57.1282],[-170.1339,57.1813],[-170.144,57.2428],[-170.42,57.2129]]],[[[-170.8179,52.6363],[-170.8419,52.5582],[-170.585,52.5872],[-170.5321,52.68],[-170.6715,52.6981],[-170.8179,52.6363]]],[[[-171.8368,63.5649],[-171.85,63.485],[-171.7601,63.3816],[-171.4333,63.3076],[-171.2263,63.3951],[-170.8962,63.4177],[-170.4307,63.3143],[-170.263,63.1791],[-170.0496,63.1634],[-169.7885,63.043],[-169.7572,62.9601],[-169.568,62.9769],[-169.535,63.0744],[-169.2305,63.1729],[-168.8417,63.1538],[-168.6851,63.2964],[-168.9374,63.3338],[-169.4627,63.3605],[-169.6565,63.4299],[-170.0079,63.4754],[-170.0958,63.6127],[-170.3449,63.6942],[-170.6063,63.6727],[-170.9508,63.5701],[-171.5529,63.6663],[-171.6132,63.7851],[-171.8028,63.7164],[-171.8368,63.5649]]],[[[-172.6123,52.3068],[-172.4144,52.2767],[-172.3014,52.33],[-172.4482,52.3914],[-172.6123,52.3068]]],[[[-173.0746,60.7047],[-173.1156,60.659],[-173.0638,60.5026],[-172.6303,60.3349],[-172.2543,60.2974],[-172.2389,60.3366],[-172.5459,60.4122],[-172.8473,60.5167],[-172.9126,60.6041],[-173.0746,60.7047]]],[[[-175.3016,52.0556],[-175.3233,52.0075],[-174.7366,52.0073],[-174.5563,52.0367],[-174.4087,52.0128],[-174.2783,52.0895],[-173.8207,52.0433],[-173.6953,52.0553],[-173.513,52.0253],[-172.9802,52.064],[-173.1744,52.1263],[-173.3752,52.1082],[-173.5299,52.1594],[-174.0226,52.1337],[-174.047,52.2363],[-173.9852,52.3176],[-174.0682,52.3903],[-174.1853,52.4178],[-174.456,52.3137],[-174.463,52.213],[-174.5547,52.1604],[-174.7152,52.1274],[-174.8872,52.1286],[-175.3016,52.0556]]],[[[-176.9501,51.6867],[-176.9389,51.591],[-176.7154,51.6204],[-176.467,51.7267],[-176.2899,51.7417],[-175.9985,51.8015],[-175.7891,51.9193],[-175.4249,51.9723],[-175.4505,52.0127],[-175.8875,51.9951],[-176.056,52.1095],[-176.2112,52.0647],[-176.1739,51.8824],[-176.5764,51.8423],[-176.58,52.0032],[-176.8104,51.9271],[-176.7819,51.8324],[-176.9171,51.797],[-176.9501,51.6867]]],[[[-177.6701,51.7434],[-177.6514,51.6536],[-177.1052,51.7193],[-177.0987,51.8296],[-177.0451,51.8986],[-177.1813,51.9432],[-177.2282,51.8038],[-177.3131,51.7782],[-177.6701,51.7434]]],[[[-178.1971,51.9055],[-178.2241,51.8649],[-177.9953,51.7815],[-177.9816,51.7156],[-178.1179,51.6778],[-177.9092,51.5967],[-177.868,51.6794],[-177.6153,51.8551],[-177.8874,51.8509],[-177.9521,51.9153],[-178.1971,51.9055]]],[[[-179.1743,51.2791],[-179.1269,51.2199],[-178.9089,51.3406],[-178.9956,51.4145],[-179.1743,51.2791]]]]},"properties":{"NAME":"Alaska","STUSPS":"AK","STATEFP":"02"}},
{"type":"Feature","geometry":{"type":"Polygon","coordinates":[[[-75.4151,39.8019],[-75.5704,39.8392],[-75.7171,39.7923],[-75.7886,39.7222],[-75.7669,39.3775],[-75.6937,38.4601],[-75.0489,38.4513],[-75.0895,38.7972],[-75.159,38.7902],[-75.3041,38.9132],[-75.3409,39.02],[-75.3963,39.0579],[-75.4084,39.2647],[-75.5718,39.4389],[-75.5281,39.4981],[-75.5594,39.6298],[-75.4151,39.8019]]]},"properties":{"NAME":"Delaware","STUSPS":"DE","STATEFP":"10"}},
{"type":"Feature","geometry":{"type":"Polygon","coordinates":[[[-103.0022,37.0001],[-103.0024,36.5004],[-102.1625,36.5003],[-101.6239,36.4995],[-100.5926,36.4995],[-100.0004,36.4997],[-100.0004,35.6191],[-100.0004,34.5605],[-99.9293,34.5767],[-99.6965,34.381],[-99.5845,34.4077],[-99.4204,34.3805],[-99.395,34.4421],[-99.2753,34.3866],[-99.2116,34.314],[-99.1895,34.2143],[-98.9402,34.2037],[-98.7372,34.131],[-98.5771,34.149],[-98.4751,34.0643],[-98.364,34.1571],[-98.0993,34.1043],[-98.0828,34.0024],[-97.9476,33.9911],[-97.9512,33.8784],[-97.8658,33.8494],[-97.6718,33.9914],[-97.5583,33.8971],[-97.4865,33.917],[-97.4442,33.8238],[-97.3729,33.8195],[-97.2061,33.9143],[-97.2057,33.8098],[-97.1494,33.722],[-97.0911,33.7351],[-97.0558,33.8557],[-96.9523,33.9446],[-96.8506,33.8472],[-96.7124,33.8316],[-96.6599,33.9167],[-96.5929,33.8309],[-96.4365,33.7801],[-96.3631,33.6942],[-96.2773,33.7697],[-96.1516,33.8319],[-95.9353,33.8751],[-95.8206,33.8585],[-95.7375,33.896],[-95.5569,33.927],[-95.4474,33.8689],[-95.2834,33.8777],[-95.2264,33.962],[-95.0466,33.8626],[-94.9816,33.8523],[-94.8416,33.7394],[-94.4859,33.6379],[-94.4575,34.6349],[-94.4315,35.3696],[-94.4945,35.7683],[-94.6179,36.4994],[-94.618,36.9989],[-95.7868,36.9993],[-96.5003,36.9986],[-97.4623,36.9988],[-98.3541,36.998],[-99.1294,36.9994],[-100.0895,37.0015],[-100.8556,36.9986],[-102.0422,36.9931],[-103.0022,37.0001]]]},"properties":{"NAME":"Oklahoma","STUSPS":"OK","STATEFP":"40"}},
{"type":"Feature","geometry":{"type":"Polygon","coordinates":[[[-71.5011,45.0134],[-71.4944,44.9118],[-71.6269,44.7472],[-71.5517,44.6276],[-71.58,44.5018],[-71.8188,44.3529],[-72.0463,44.292],[-72.0369,44.1031],[-72.1833,43.8082],[-72.2848,43.7204],[-72.3794,43.5741],[-72.4025,43.3204],[-72.4518,43.1535],[-72.445,43.0044],[-72.5322,42.9549],[-72.5396,42.8048],[-72.4585,42.7269],[-71.2942,42.697],[-71.1818,42.7376],[-71.1497,42.8155],[-70.9308,42.8846],[-70.8173,42.8723],[-70.7038,43.0598],[-70.8281,43.1291],[-70.8131,43.2173],[-70.9843,43.3761],[-70.9727,43.5703],[-71.0087,44.2588],[-71.0367,44.7365],[-71.0839,45.3055],[-71.1826,45.2411],[-71.2837,45.302],[-71.4385,45.239],[-71.4056,45.1981],[-71.5011,45.0134]]]},"properties":{"NAME":"New Hampshire","STUSPS":"NH","STATEFP":"33"}},
{"type":"Feature","geometry":{"type":"MultiPolygon","coordinates":[[[[-156.0497,19.7805],[-156.0644,19.7308],[-155.9782,19.6082],[-155.9515,19.4866],[-155.8887,19.348],[-155.9142,19.0991],[-155.8815,19.0366],[-155.726,18.9694],[-155.672,18.9175],[-155.614,18.9704],[-155.5053,19.1379],[-155.4535,19.152],[-155.2646,19.2742],[-155.1596,19.2684],[-155.0205,19.3313],[-154.8766,19.4332],[-154.8144,19.5301],[-154.9743,19.6332],[-155.0064,19.7393],[-155.0871,19.728],[-155.0863,19.8554],[-155.2703,20.0145],[-155.5026,20.1142],[-155.598,20.1245],[-155.737,20.2228],[-155.8907,20.2552],[-155.8906,20.1236],[-155.8255,20.0259],[-155.9157,19.8871],[-156.0497,19.7805]]],[[[-156.6999,20.9206],[-156.6318,20.8212],[-156.5378,20.7784],[-156.4736,20.7908],[-156.4319,20.5981],[-156.3776,20.5784],[-156.2103,20.6285],[-156.1299,20.6275],[-156.0019,20.6981],[-156.0035,20.7955],[-156.0598,20.8105],[-156.2426,20.9378],[-156.3328,20.9465],[-156.4811,20.8982],[-156.5628,21.0162],[-156.6196,21.0278],[-156.6999,20.9206]]],[[[-156.6705,20.5599],[-156.6688,20.5047],[-156.5396,20.5276],[-156.5671,20.6049],[-156.6705,20.5599]]],[[[-157.0591,20.9134],[-156.9918,20.8266],[-156.9679,20.7351],[-156.8383,20.7646],[-156.8085,20.8204],[-156.9375,20.9253],[-157.0591,20.9134]]],[[[-157.2772,21.1584],[-157.2525,21.0877],[-157.0807,21.102],[-156.8771,21.0493],[-156.7393,21.1113],[-156.7422,21.1762],[-156.9211,21.1691],[-157.2607,21.2257],[-157.2772,21.1584]]],[[[-158.2322,21.5838],[-158.233,21.4876],[-158.1033,21.2979],[-157.89,21.3065],[-157.8096,21.2577],[-157.7001,21.264],[-157.7225,21.4592],[-157.8139,21.4403],[-157.8369,21.5299],[-157.9686,21.7127],[-158.0507,21.6712],[-158.1256,21.5867],[-158.2322,21.5838]]],[[[-159.7837,22.0649],[-159.7548,21.9778],[-159.6033,21.8922],[-159.4449,21.8686],[-159.3377,21.9512],[-159.293,22.123],[-159.3123,22.1831],[-159.4025,22.2326],[-159.5811,22.2235],[-159.7055,22.1593],[-159.7837,22.0649]]]]},"properties":{"NAME":"Hawaii","STUSPS":"HI","STATEFP":"15"}},
{"type":"Feature","geometry":{"type":"Polygon","coordinates":[[[-81.6775,36.5881],[-81.7343,36.4133],[-81.706,36.3385],[-81.8332,36.3473],[-81.9081,36.302],[-82.0287,36.1243],[-82.1271,36.1044],[-82.2113,36.159],[-82.4095,36.0834],[-82.4646,36.0065],[-82.5579,35.9539],[-82.6284,36.0621],[-82.7794,35.9925],[-82.9784,35.7826],[-83.1615,35.7634],[-83.4983,35.563],[-83.7717,35.5621],[-84.0218,35.4074],[-84.0235,35.2958],[-84.0975,35.2474],[-84.2237,35.2691],[-84.2832,35.2266],[-84.3219,34.9884],[-83.62,34.9866],[-83.1086,35.0007],[-82.5326,35.1556],[-82.4113,35.2025],[-81.0429,35.1492],[-81.0415,35.0447],[-80.9349,35.1074],[-80.782,34.9358],[-80.797,34.8239],[-80.0772,34.8097],[-79.6753,34.8047],[-79.0712,34.2992],[-78.5411,33.8511],[-78.384,33.9019],[-78.137,33.9122],[-77.9602,33.8533],[-77.8292,34.1626],[-77.635,34.3596],[-77.4629,34.4714],[-77.1368,34.6329],[-76.9063,34.6828],[-76.727,34.6967],[-76.6187,34.6726],[-76.5359,34.5886],[-76.4505,34.7145],[-76.3102,34.8523],[-76.1373,34.9879],[-75.913,35.1196],[-75.6355,35.2203],[-75.5336,35.2258],[-75.4868,35.3917],[-75.4587,35.5966],[-75.4961,35.7285],[-75.7183,36.1137],[-75.7964,36.2904],[-75.867,36.5508],[-76.9173,36.546],[-77.7497,36.5455],[-78.51,36.5411],[-79.5136,36.5407],[-80.2952,36.544],[-80.9017,36.5618],[-81.6775,36.5881]]]},"properties":{"NAME":"North Carolina","STUSPS":"NC","STATEFP":"37"}},
{"type":"Feature","geometry":{"type":"Polygon","coordinates":[[[-94.6179,36.4994],[-94.4945,35.7683],[-94.4315,35.3696],[-94.4575,34.6349],[-94.4859,33.6379],[-94.3542,33.5565],[-94.1834,33.5922],[-94.0434,33.5514],[-94.043,33.0192],[-93.3771,33.0182],[-92.2228,33.0091],[-91.1661,33.0041],[-91.1204,33.0545],[-91.0687,33.2329],[-91.1255,33.2803],[-91.1138,33.3931],[-91.2157,33.5294],[-91.1309,33.6109],[-91.0268,33.7636],[-91.0612,33.8775],[-91.005,33.977],[-90.8924,34.0269],[-90.9463,34.1094],[-90.8946,34.2244],[-90.7527,34.2893],[-90.7291,34.3642],[-90.5753,34.4152],[-90.5492,34.5681],[-90.5872,34.6157],[-90.4735,34.7888],[-90.2501,34.9073],[-90.3093,34.9957],[-90.0906,35.1183],[-90.1219,35.3045],[-89.9585,35.5417],[-89.9566,35.6955],[-89.7234,35.8094],[-89.6523,35.9215],[-89.7331,36.0006],[-90.3687,35.9958],[-90.2945,36.1129],[-90.064,36.303],[-90.0661,36.3863],[-90.1539,36.4953],[-91.1265,36.4978],[-92.3503,36.4978],[-92.854,36.498],[-93.9592,36.4987],[-94.6179,36.4994]]]},"properties":{"NAME":"Arkansas","STUSPS":"AR","STATEFP":"05"}},
{"type":"Feature","geometry":{"type":"Polygon","coordinates":[[[-84.8061,41.6961],[-84.8032,41.1214],[-84.8041,40.3528],[-84.8141,39.7266],[-84.8202,39.1055],[-84.7507,39.1474],[-84.6079,39.0732],[-84.462,39.1218],[-84.3265,39.0275],[-84.2321,38.8805],[-84.2129,38.8057],[-84.0516,38.7714],[-83.9788,38.7871],[-83.8521,38.7514],[-83.7722,38.6582],[-83.6795,38.63],[-83.5333,38.7021],[-83.3763,38.6615],[-83.2865,38.5992],[-83.1726,38.6203],[-83.0118,38.7301],[-82.8892,38.7561],[-82.8513,38.6043],[-82.7248,38.5576],[-82.5937,38.4218],[-82.5607,38.4043],[-82.324,38.4493],[-82.2743,38.5937],[-82.1752,38.6085],[-82.2093,38.8027],[-82.1616,38.8246],[-82.0891,38.976],[-82.0071,39.0296],[-81.8985,38.9296],[-81.7757,38.9807],[-81.8079,39.084],[-81.6783,39.2738],[-81.4561,39.4093],[-81.3476,39.3458],[-81.1285,39.4494],[-81.076,39.5097],[-80.8656,39.6628],[-80.8298,39.7118],[-80.8034,39.9188],[-80.7401,39.9708],[-80.7368,40.0801],[-80.6066,40.3039],[-80.6049,40.4467],[-80.668,40.5825],[-80.519,40.6388],[-80.5189,41.2326],[-80.5194,41.9775],[-81.0519,41.8396],[-81.2869,41.7602],[-81.6337,41.5405],[-81.7388,41.4885],[-81.9946,41.5144],[-82.4606,41.3863],[-82.617,41.4284],[-82.7179,41.5419],[-82.8341,41.5876],[-82.9344,41.5144],[-83.0666,41.5953],[-83.4538,41.7326],[-84.1344,41.7129],[-84.8061,41.6961]]]},"properties":{"NAME":"Ohio","STUSPS":"OH","STATEFP":"39"}},
{"type":"Feature","geometry":{"type":"Polygon","coordinates":[[[-87.524,41.7083],[-87.5268,41.2982],[-87.5263,40.5354],[-87.5323,40.0116],[-87.5316,39.3479],[-87.6004,39.3129],[-87.577,39.2111],[-87.6254,39.1018],[-87.5295,38.9719],[-87.5474,38.8756],[-87.4989,38.7578],[-87.6201,38.6395],[-87.6607,38.5411],[-87.832,38.3072],[-87.969,38.2374],[-87.9275,38.1519],[-88.0309,38.0307],[-88.0163,37.9616],[-88.0674,37.8561],[-88.028,37.7992],[-87.8725,37.921],[-87.6259,37.8519],[-87.5513,37.9254],[-87.4186,37.9448],[-87.1801,37.8414],[-87.1056,37.7676],[-87.0103,37.9197],[-86.8109,37.9972],[-86.7222,37.8926],[-86.5094,37.9029],[-86.5218,38.0383],[-86.3213,38.1474],[-86.2064,38.0219],[-86.0334,37.9704],[-85.9224,38.0287],[-85.8948,38.1885],[-85.8162,38.283],[-85.6836,38.2955],[-85.5878,38.4505],[-85.4989,38.4682],[-85.4156,38.5463],[-85.4489,38.7134],[-85.2755,38.7412],[-85.1873,38.6876],[-84.9625,38.778],[-84.8129,38.7861],[-84.7864,38.8822],[-84.8972,39.0524],[-84.8202,39.1055],[-84.8141,39.7266],[-84.8041,40.3528],[-84.8032,41.1214],[-84.8061,41.6961],[-84.8059,41.7602],[-85.7914,41.7591],[-86.8248,41.7602],[-87.0279,41.6747],[-87.2615,41.6203],[-87.3654,41.6295],[-87.4158,41.6882],[-87.524,41.7083]]]},"properties":{"NAME":"Indiana","STUSPS":"IN","STATEFP":"18"}},
{"type":"Feature","geometry":{"type":"Polygon","coordinates":[[[-83.1086,35.0007],[-83.1406,34.9249],[-83.3239,34.7897],[-83.3387,34.682],[-83.1546,34.5882],[-83.0483,34.4933],[-82.8738,34.4715],[-82.745,34.2449],[-82.7154,34.1482],[-82.6428,34.0813],[-82.5568,33.9454],[-82.3245,33.82],[-82.1619,33.6106],[-82.0282,33.5449],[-81.9263,33.4629],[-81.9327,33.3435],[-81.8461,33.3038],[-81.8465,33.2417],[-81.7551,33.1516],[-81.6017,33.0847],[-81.502,33.0151],[-81.4996,32.9437],[-81.4206,32.8312],[-81.3971,32.6056],[-81.2749,32.5442],[-81.1948,32.4651],[-81.133,32.3348],[-81.1535,32.2377],[-81.1133,32.1132],[-81.0067,32.1012],[-80.8855,32.0346],[-80.8587,32.0996],[-80.7215,32.1604],[-80.5964,32.2735],[-80.4552,32.3265],[-80.4846,32.461],[-80.3384,32.4787],[-80.1484,32.5785],[-80.0008,32.6059],[-79.885,32.6844],[-79.8684,32.7348],[-79.7264,32.806],[-79.5698,32.9267],[-79.6066,32.9722],[-79.36,33.0067],[-79.3299,33.09],[-79.2155,33.1556],[-79.1354,33.4039],[-78.9381,33.6398],[-78.7727,33.7685],[-78.5411,33.8511],[-79.0712,34.2992],[-79.6753,34.8047],[-80.0772,34.8097],[-80.797,34.8239],[-80.782,34.9358],[-80.9349,35.1074],[-81.0415,35.0447],[-81.0429,35.1492],[-82.4113,35.2025],[-82.5326,35.1556],[-83.1086,35.0007]]]},"properties":{"NAME":"South Carolina","STUSPS":"SC","STATEFP":"45"}},
{"type":"Feature","geometry":{"type":"Polygon","coordinates":[[[-104.0487,48.9999],[-104.0476,48.4941],[-104.0424,47.8033],[-104.0453,47.3301],[-104.045,46.5098],[-104.0454,45.9453],[-103.2184,45.9452],[-102.0876,45.9446],[-100.7621,45.9438],[-99.4903,45.9404],[-98.4145,45.9365],[-97.777,45.9354],[-96.5637,45.9352],[-96.5545,46.084],[-96.601,46.3196],[-96.7091,46.4353],[-96.7905,46.6369],[-96.764,46.9125],[-96.8335,47.0101],[-96.8191,47.0812],[-96.8575,47.4405],[-96.8541,47.572],[-96.9964,47.8444],[-97.1467,48.1686],[-97.1295,48.2578],[-97.1491,48.5323],[-97.1,48.6679],[-97.2279,48.9459],[-97.229,49.0007],[-97.95,49.0005],[-98.869,49.0002],[-99.9138,48.999],[-101.1254,48.9991],[-102.217,48.9986],[-103.3755,48.999],[-104.0487,48.9999]]]},"properties":{"NAME":"North Dakota","STUSPS":"ND","STATEFP":"38"}},
{"type":"Feature","geometry":{"type":"MultiPolygon","coordinates":[[[[-123.2371,48.6835],[-123.1415,48.5053],[-122.8741,48.4182],[-122.7712,48.5624],[-122.743,48.662],[-122.8184,48.7446],[-122.9379,48.7903],[-123.0704,48.7],[-123.2371,48.6835]]],[[[-117.0324,48.9992],[-118.1974,49.0004],[-118.8366,49.0003],[-120.0012,48.9994],[-120.7166,49.0002],[-121.7513,48.9974],[-122.758,49.0024],[-122.8216,48.9414],[-122.7325,48.8381],[-122.6426,48.5883],[-122.6891,48.4768],[-122.6653,48.4165],[-122.7526,48.2601],[-122.5983,48.1106],[-122.7604,48.1432],[-123.0041,48.0905],[-123.1448,48.1759],[-123.2391,48.1182],[-123.442,48.1243],[-123.6724,48.1627],[-124.0507,48.1777],[-124.1018,48.2169],[-124.3809,48.2847],[-124.6532,48.3907],[-124.7217,48.1532],[-124.6724,47.9644],[-124.4121,47.6912],[-124.356,47.5457],[-124.3194,47.3556],[-124.2363,47.2873],[-124.1885,47.1579],[-124.1691,46.9945],[-124.081,46.735],[-123.9752,46.714],[-123.9606,46.6364],[-124.0696,46.6307],[-124.057,46.4933],[-124.0807,46.2672],[-123.9694,46.2914],[-123.8755,46.2398],[-123.7008,46.3053],[-123.5477,46.2591],[-123.4308,46.1818],[-123.2802,46.1448],[-123.1159,46.1853],[-122.9041,46.0837],[-122.814,45.961],[-122.7615,45.7592],[-122.7745,45.6804],[-122.6439,45.6097],[-122.2626,45.5443],[-122.1017,45.5835],[-121.8113,45.7068],[-121.7351,45.694],[-121.5331,45.7265],[-121.0849,45.6479],[-120.8557,45.6715],[-120.5912,45.7465],[-120.5059,45.7],[-120.2108,45.726],[-119.9657,45.8244],[-119.6699,45.8569],[-119.6005,45.9196],[-119.4878,45.9063],[-119.2571,45.9399],[-119.1261,45.9329],[-118.9871,45.9999],[-117.3539,45.9963],[-116.916,45.9954],[-116.982,46.0849],[-116.924,46.1709],[-117.0627,46.3536],[-117.0355,46.41],[-117.0398,47.1273],[-117.0416,47.7353],[-117.0353,48.4227],[-117.0324,48.9992]]]]},"properties":{"NAME":"Washington","STUSPS":"WA","STATEFP":"53"}},
{"type":"Feature","geometry":{"type":"Polygon","coordinates":[[[-89.1329,36.9821],[-89.1655,36.6624],[-89.2273,36.5694],[-89.3247,36.624],[-89.4079,36.5623],[-89.5444,36.5745],[-89.5392,36.4979],[-88.9645,36.5022],[-88.0505,36.5001],[-88.0705,36.6781],[-87.8532,36.6332],[-86.5078,36.6524],[-85.8739,36.6236],[-85.4884,36.615],[-85.2906,36.6265],[-84.7853,36.6034],[-83.6907,36.5826],[-83.6754,36.6008],[-83.5271,36.666],[-83.4365,36.6662],[-83.1364,36.7431],[-83.0756,36.8506],[-82.8954,36.8821],[-82.8692,36.9742],[-82.7507,37.0241],[-82.7263,37.1119],[-82.5582,37.1996],[-82.3553,37.2652],[-81.9683,37.5378],[-82.0644,37.5445],[-82.2961,37.6862],[-82.3274,37.7622],[-82.4876,37.917],[-82.465,37.9769],[-82.6262,38.1348],[-82.5818,38.2486],[-82.5937,38.4218],[-82.7248,38.5576],[-82.8513,38.6043],[-82.8892,38.7561],[-83.0118,38.7301],[-83.1726,38.6203],[-83.2865,38.5992],[-83.3763,38.6615],[-83.5333,38.7021],[-83.6795,38.63],[-83.7722,38.6582],[-83.8521,38.7514],[-83.9788,38.7871],[-84.0516,38.7714],[-84.2129,38.8057],[-84.2321,38.8805],[-84.3265,39.0275],[-84.462,39.1218],[-84.6079,39.0732],[-84.7507,39.1474],[-84.8202,39.1055],[-84.8972,39.0524],[-84.7864,38.8822],[-84.8129,38.7861],[-84.9625,38.778],[-85.1873,38.6876],[-85.2755,38.7412],[-85.4489,38.7134],[-85.4156,38.5463],[-85.4989,38.4682],[-85.5878,38.4505],[-85.6836,38.2955],[-85.8162,38.283],[-85.8948,38.1885],[-85.9224,38.0287],[-86.0334,37.9704],[-86.2064,38.0219],[-86.3213,38.1474],[-86.5218,38.0383],[-86.5094,37.9029],[-86.7222,37.8926],[-86.8109,37.9972],[-87.0103,37.9197],[-87.1056,37.7676],[-87.1801,37.8414],[-87.4186,37.9448],[-87.5513,37.9254],[-87.6259,37.8519],[-87.8725,37.921],[-88.028,37.7992],[-88.1601,37.6543],[-88.0623,37.4878],[-88.2817,37.4526],[-88.3584,37.4049],[-88.4659,37.4005],[-88.5147,37.2909],[-88.4248,37.1499],[-88.4761,37.0682],[-88.7531,37.1547],[-88.9317,37.2276],[-89.058,37.1888],[-89.1681,37.0742],[-89.1329,36.9821]]]},"properties":{"NAME":"Kentucky","STUSPS":"KY","STATEFP":"21"}},
{"type":"Feature","geometry":{"type":"Polygon","coordinates":[[[-104.0577,44.9974],[-104.0554,44.25],[-104.055,43.5586],[-104.0531,43.0006],[-103.0006,43.0003],[-102.0825,42.9991],[-101.0004,42.9975],[-100.1984,42.998],[-99.2545,42.9982],[-98.4985,42.9986],[-98.4345,42.9292],[-98.1481,42.84],[-98.035,42.7642],[-97.9501,42.7696],[-97.858,42.8651],[-97.701,42.8438],[-97.2379,42.8531],[-97.1313,42.7719],[-96.9068,42.7338],[-96.6976,42.6591],[-96.7093,42.6038],[-96.6115,42.5061],[-96.4455,42.4906],[-96.5268,42.6412],[-96.6247,42.7255],[-96.6219,42.7793],[-96.5003,42.9594],[-96.5116,43.0399],[-96.4393,43.1139],[-96.5221,43.221],[-96.5216,43.3856],[-96.5989,43.5005],[-96.4533,43.5004],[-96.4533,44.5436],[-96.4578,45.3076],[-96.5218,45.3756],[-96.7108,45.4369],[-96.844,45.594],[-96.8262,45.6542],[-96.6727,45.7323],[-96.5871,45.8164],[-96.5637,45.9352],[-97.777,45.9354],[-98.4145,45.9365],[-99.4903,45.9404],[-100.7621,45.9438],[-102.0876,45.9446],[-103.2184,45.9452],[-104.0454,45.9453],[-104.0391,44.9985],[-104.0577,44.9974]]]},"properties":{"NAME":"South Dakota","STUSPS":"SD","STATEFP":"46"}},
{"type":"Feature","geometry":{"type":"Polygon","coordinates":[[[-71.0839,45.3055],[-71.0367,44.7365],[-71.0087,44.2588],[-70.9727,43.5703],[-70.9843,43.3761],[-70.8131,43.2173],[-70.8281,43.1291],[-70.7038,43.0598],[-70.5962,43.1635],[-70.5539,43.3219],[-70.4163,43.3611],[-70.2455,43.5396],[-70.1682,43.6751],[-70.096,43.6723],[-69.9156,43.7751],[-69.8551,43.7047],[-69.7171,43.7924],[-69.5033,43.8377],[-69.3933,43.9564],[-69.321,43.8567],[-69.175,43.9769],[-69.077,43.9737],[-69.0319,44.079],[-69.0757,44.13],[-69.0402,44.2337],[-68.9519,44.2187],[-68.8741,44.0254],[-68.4385,44.1162],[-68.331,44.1076],[-68.3065,44.2348],[-68.2295,44.2669],[-68.1256,44.3871],[-67.8551,44.4194],[-67.7936,44.4948],[-67.6531,44.5258],[-67.5797,44.4291],[-67.4485,44.6003],[-67.2934,44.5993],[-67.1699,44.6621],[-66.9499,44.8174],[-67.0335,44.9399],[-67.1124,45.1123],[-67.2711,45.1911],[-67.3906,45.1541],[-67.4803,45.2682],[-67.4272,45.3737],[-67.4843,45.452],[-67.4174,45.502],[-67.4554,45.6047],[-67.5349,45.5954],[-67.8033,45.6779],[-67.78,45.9382],[-67.7884,46.6018],[-67.7898,47.0657],[-67.9523,47.1961],[-68.2043,47.3397],[-68.3616,47.3556],[-68.3756,47.2923],[-68.5074,47.2966],[-68.6048,47.2494],[-68.901,47.1785],[-69.0402,47.2451],[-69.0393,47.4222],[-69.22,47.4572],[-69.9971,46.6952],[-70.0537,46.4292],[-70.2074,46.3313],[-70.2909,46.1858],[-70.2396,46.1428],[-70.3067,46.0613],[-70.313,45.9619],[-70.2591,45.8908],[-70.4157,45.7862],[-70.3836,45.7349],[-70.5528,45.6678],[-70.7815,45.4312],[-70.8444,45.2345],[-70.9494,45.3315],[-71.0839,45.3055]]]},"properties":{"NAME":"Maine","STUSPS":"ME","STATEFP":"23"}},
{"type":"Feature","geometry":{"type":"MultiPolygon","coordinates":[[[[-70.2755,41.3105],[-70.2115,41.2488],[-70.0152,41.238],[-69.9602,41.2645],[-69.9849,41.3588],[-70.0791,41.3195],[-70.2755,41.3105]]],[[[-70.8338,41.3534],[-70.4483,41.3537],[-70.4638,41.4191],[-70.6036,41.4824],[-70.7578,41.3657],[-70.8338,41.3534]]],[[[-73.265,42.7459],[-73.5081,42.0863],[-73.4873,42.0496],[-72.8471,42.0369],[-71.8006,42.0236],[-71.7992,42.0081],[-71.3814,42.0188],[-71.3817,41.8932],[-71.3294,41.7826],[-71.1956,41.6751],[-71.1329,41.6601],[-71.1206,41.4974],[-70.9817,41.5101],[-70.9102,41.5771],[-70.6954,41.6025],[-70.7343,41.4863],[-70.3216,41.6305],[-70.2697,41.6178],[-70.007,41.6716],[-69.9311,41.6227],[-69.936,41.8094],[-69.9941,41.9993],[-70.0838,42.012],[-70.0247,41.7874],[-70.2723,41.7213],[-70.4417,41.7529],[-70.541,41.8158],[-70.5464,41.9168],[-70.6625,41.9606],[-70.6385,42.0816],[-70.7306,42.2109],[-70.9749,42.3558],[-70.836,42.4905],[-70.8485,42.5502],[-70.6547,42.5822],[-70.6025,42.6777],[-70.7298,42.6696],[-70.8052,42.7818],[-70.8173,42.8723],[-70.9308,42.8846],[-71.1497,42.8155],[-71.1818,42.7376],[-71.2942,42.697],[-72.4585,42.7269],[-73.265,42.7459]]]]},"properties":{"NAME":"Massachusetts","STUSPS":"MA","STATEFP":"25"}},
{"type":"Feature","geometry":{"type":"Polygon","coordinates":[[[-114.0417,41.9937],[-114.0414,41.2078],[-114.0462,40.3983],[-114.0478,39.7942],[-114.0491,39.0055],[-114.0497,37.8814],[-114.0506,37.0004],[-112.9665,37.0002],[-112.3577,37.001],[-111.2783,37.0005],[-110.0007,36.998],[-109.0452,36.9991],[-109.0438,37.4848],[-109.0418,38.1647],[-109.0601,38.2755],[-109.0515,39.1261],[-109.0506,39.875],[-109.0501,41.0007],[-109.7154,40.9982],[-110.5398,40.9963],[-111.0467,40.998],[-111.0467,42.0016],[-112.1095,41.9976],[-113,41.9982],[-113.818,41.9886],[-114.0417,41.9937]]]},"properties":{"NAME":"Utah","STUSPS":"UT","STATEFP":"49"}},
{"type":"Feature","geometry":{"type":"Polygon","coordinates":[[[-71.8605,41.3202],[-71.4833,41.3717],[-71.4287,41.4542],[-71.193,41.4579],[-71.1206,41.4974],[-71.1329,41.6601],[-71.1956,41.6751],[-71.3294,41.7826],[-71.3817,41.8932],[-71.3814,42.0188],[-71.7992,42.0081],[-71.7897,41.7247],[-71.7977,41.4167],[-71.8605,41.3202]]]},"properties":{"NAME":"Rhode Island","STUSPS":"RI","STATEFP":"44"}},
{"type":"Feature","geometry":{"type":"Polygon","coordinates":[[[-114.7196,32.7188],[-114.8094,32.6171],[-114.8136,32.4943],[-113.7508,32.169],[-113.3338,32.0402],[-112.365,31.7411],[-111.0748,31.3322],[-109.8297,31.3341],[-109.05,31.3325],[-109.0492,31.7966],[-109.0471,32.7778],[-109.0464,33.8751],[-109.0459,34.9597],[-109.0463,35.6143],[-109.0457,36.117],[-109.0452,36.9991],[-110.0007,36.998],[-111.2783,37.0005],[-112.3577,37.001],[-112.9665,37.0002],[-114.0506,37.0004],[-114.0468,36.1941],[-114.1517,36.0246],[-114.3161,36.0631],[-114.3721,36.1431],[-114.6279,36.141],[-114.7362,36.1044],[-114.7312,35.9439],[-114.6697,35.8651],[-114.7037,35.8146],[-114.6894,35.6514],[-114.6534,35.6108],[-114.6645,35.4495],[-114.6271,35.4095],[-114.5727,35.1387],[-114.6199,35.1216],[-114.6335,35.0019],[-114.6344,34.8729],[-114.4652,34.6912],[-114.4224,34.5807],[-114.3354,34.45],[-114.1728,34.345],[-114.1391,34.2595],[-114.2297,34.1869],[-114.428,34.0928],[-114.4548,34.011],[-114.535,33.9285],[-114.4966,33.7192],[-114.5246,33.5522],[-114.6352,33.4227],[-114.7073,33.3766],[-114.7233,33.2881],[-114.6745,33.2556],[-114.7062,33.1053],[-114.6708,33.038],[-114.5113,33.0235],[-114.469,32.8452],[-114.5707,32.7474],[-114.7196,32.7188]]]},"properties":{"NAME":"Arizona","STUSPS":"AZ","STATEFP":"04"}},
{"type":"Feature","geometry":{"type":"Polygon","coordinates":[[[-119.9992,41.9945],[-119.9999,41.184],[-119.9975,40.721],[-119.9976,39.9565],[-120.0051,39.2913],[-120.001,38.9996],[-118.9497,38.2689],[-118.501,37.949],[-117.6806,37.3534],[-117.0009,36.8477],[-116.4882,36.4591],[-115.6477,35.8094],[-115.0438,35.332],[-114.6335,35.0019],[-114.6199,35.1216],[-114.5727,35.1387],[-114.6271,35.4095],[-114.6645,35.4495],[-114.6534,35.6108],[-114.6894,35.6514],[-114.7037,35.8146],[-114.6697,35.8651],[-114.7312,35.9439],[-114.7362,36.1044],[-114.6279,36.141],[-114.3721,36.1431],[-114.3161,36.0631],[-114.1517,36.0246],[-114.0468,36.1941],[-114.0506,37.0004],[-114.0497,37.8814],[-114.0491,39.0055],[-114.0478,39.7942],[-114.0462,40.3983],[-114.0414,41.2078],[-114.0417,41.9937],[-114.5983,41.9945],[-115.8702,41.9968],[-117.0262,41.9999],[-117.6237,41.9985],[-118.7759,41.9927],[-119.9992,41.9945]]]},"properties":{"NAME":"Nevada","STUSPS":"NV","STATEFP":"32"}},
{"type":"Feature","geometry":{"type":"Polygon","coordinates":[[[-73.3431,45.0108],[-73.3798,44.857],[-73.3344,44.8022],[-73.39,44.6196],[-73.2936,44.4406],[-73.3346,44.3569],[-73.3166,44.2578],[-73.3954,44.1669],[-73.4369,44.0426],[-73.3507,43.7705],[-73.4145,43.6582],[-73.3277,43.6259],[-73.242,43.5349],[-73.2787,42.8334],[-73.265,42.7459],[-72.4585,42.7269],[-72.5396,42.8048],[-72.5322,42.9549],[-72.445,43.0044],[-72.4518,43.1535],[-72.4025,43.3204],[-72.3794,43.5741],[-72.2848,43.7204],[-72.1833,43.8082],[-72.0369,44.1031],[-72.0463,44.292],[-71.8188,44.3529],[-71.58,44.5018],[-71.5517,44.6276],[-71.6269,44.7472],[-71.4944,44.9118],[-71.5011,45.0134],[-72.3486,45.0056],[-73.0484,45.0148],[-73.3431,45.0108]]]},"properties":{"NAME":"Vermont","STUSPS":"VT","STATEFP":"50"}},
{"type":"Feature","geometry":{"type":"Polygon","coordinates":[[[-109.0452,36.9991],[-109.0457,36.117],[-109.0463,35.6143],[-109.0459,34.9597],[-109.0464,33.8751],[-109.0471,32.7778],[-109.0492,31.7966],[-109.05,31.3325],[-108.2086,31.3334],[-108.2084,31.7836],[-107.4222,31.7836],[-106.5282,31.7831],[-106.6359,31.8715],[-106.6185,32.0005],[-105.998,32.002],[-105.154,32.0005],[-104.6435,32.0004],[-103.7229,32.0002],[-103.0644,32.0005],[-103.0649,32.8494],[-103.0526,33.5706],[-103.0435,34.0794],[-103.0426,35.1832],[-103.0408,36.0552],[-103.0419,36.5004],[-103.0024,36.5004],[-103.0022,37.0001],[-103.7332,36.998],[-104.732,36.9934],[-106.0063,36.9954],[-106.8698,36.9924],[-106.8773,37.0001],[-108.0006,37],[-109.0452,36.9991]]]},"properties":{"NAME":"New Mexico","STUSPS":"NM","STATEFP":"35"}},
{"type":"Feature","geometry":{"type":"Polygon","coordinates":[[[-102.0517,40.0031],[-102.05,39.5741],[-102.0457,38.6976],[-102.042,37.7385],[-102.0422,36.9931],[-100.8556,36.9986],[-100.0895,37.0015],[-99.1294,36.9994],[-98.3541,36.998],[-97.4623,36.9988],[-96.5003,36.9986],[-95.7868,36.9993],[-94.618,36.9989],[-94.6179,37.6822],[-94.6126,38.2378],[-94.6074,39.1134],[-94.6803,39.1843],[-94.7997,39.206],[-94.9467,39.3997],[-95.1136,39.5539],[-95.0375,39.6529],[-94.8604,39.7495],[-94.9515,39.9005],[-95.0815,39.8617],[-95.3083,40],[-96.4699,40.001],[-97.3692,40.0019],[-98.076,40.0023],[-99.067,40.0021],[-99.8134,40.0014],[-101.0603,40.0023],[-102.0517,40.0031]]]},"properties":{"NAME":"Kansas","STUSPS":"KS","STATEFP":"20"}},
{"type":"Feature","geometry":{"type":"Polygon","coordinates":[[[-75.4151,39.8019],[-75.5594,39.6298],[-75.5281,39.4981],[-75.5364,39.4606],[-75.2444,39.2857],[-75.1367,39.1819],[-75.0485,39.2152],[-74.8859,39.1436],[-74.9673,38.9334],[-74.8645,38.9404],[-74.7059,39.1029],[-74.6466,39.212],[-74.5218,39.3138],[-74.4127,39.3608],[-74.3043,39.4714],[-74.1014,39.7562],[-74.0772,39.911],[-73.9714,40.348],[-74.1083,40.4438],[-74.2062,40.4407],[-74.2606,40.5024],[-74.2022,40.6309],[-74.0868,40.6516],[-73.9381,40.8747],[-73.894,40.9972],[-74.302,41.1726],[-74.6949,41.3574],[-74.8157,41.2962],[-74.9053,41.1557],[-75.1331,40.9802],[-75.0654,40.8857],[-75.1085,40.7911],[-75.1775,40.7642],[-75.1867,40.5694],[-75.0785,40.5483],[-75.0561,40.4161],[-74.946,40.3573],[-74.7216,40.1538],[-74.8259,40.1239],[-75.1357,39.9471],[-75.1334,39.8962],[-75.3418,39.8461],[-75.4151,39.8019]]]},"properties":{"NAME":"New Jersey","STUSPS":"NJ","STATEFP":"34"}},
{"type":"Feature","geometry":{"type":"Polygon","coordinates":[[[-73.4873,42.0496],[-73.551,41.2954],[-73.4827,41.2128],[-73.7278,41.1007],[-73.6573,40.9852],[-73.4222,41.0476],[-73.2027,41.1581],[-72.9356,41.2585],[-72.7603,41.2412],[-72.5472,41.2505],[-71.8863,41.3364],[-71.8605,41.3202],[-71.7977,41.4167],[-71.7897,41.7247],[-71.7992,42.0081],[-71.8006,42.0236],[-72.8471,42.0369],[-73.4873,42.0496]]]},"properties":{"NAME":"Connecticut","STUSPS":"CT","STATEFP":"09"}},
{"type":"Feature","geometry":{"type":"Polygon","coordinates":[[[-88.2001,34.9956],[-88.0979,34.8922],[-88.2072,34.0583],[-88.3171,33.1841],[-88.3892,32.5781],[-88.4687,31.9332],[-88.4687,31.7907],[-88.432,31.1143],[-88.395,30.3694],[-88.2578,30.3189],[-88.1362,30.3207],[-88.062,30.6449],[-87.9311,30.6527],[-87.9017,30.5509],[-87.9334,30.4874],[-87.7967,30.3242],[-87.8189,30.2283],[-87.5183,30.2804],[-87.4523,30.3441],[-87.4147,30.4573],[-87.4447,30.5075],[-87.4002,30.6572],[-87.5236,30.7383],[-87.6349,30.8659],[-87.5989,30.9974],[-86.5635,30.9952],[-85.8936,30.9935],[-85.0025,31.0007],[-85.0356,31.1082],[-85.1075,31.1865],[-85.0925,31.3629],[-85.0419,31.5447],[-85.1255,31.695],[-85.1418,31.8393],[-85.0678,31.9674],[-85.0587,32.136],[-84.8918,32.2634],[-85.0081,32.3367],[-84.9718,32.4428],[-85.0698,32.5831],[-85.1142,32.7304],[-85.1844,32.8613],[-85.3381,33.6531],[-85.4295,34.1251],[-85.5614,34.7501],[-85.6052,34.9847],[-86.7836,34.9919],[-88.203,35.008],[-88.2001,34.9956]]]},"properties":{"NAME":"Alabama","STUSPS":"AL","STATEFP":"01"}},
{"type":"Feature","geometry":{"type":"Polygon","coordinates":[[[-80.5194,41.9775],[-80.5189,41.2326],[-80.519,40.6388],[-80.5193,39.7214],[-79.4767,39.7211],[-78.3805,39.7227],[-77.4693,39.7202],[-76.419,39.7215],[-75.7886,39.7222],[-75.7171,39.7923],[-75.5704,39.8392],[-75.4151,39.8019],[-75.3418,39.8461],[-75.1334,39.8962],[-75.1357,39.9471],[-74.8259,40.1239],[-74.7216,40.1538],[-74.946,40.3573],[-75.0561,40.4161],[-75.0785,40.5483],[-75.1867,40.5694],[-75.1775,40.7642],[-75.1085,40.7911],[-75.0654,40.8857],[-75.1331,40.9802],[-74.9053,41.1557],[-74.8157,41.2962],[-74.6949,41.3574],[-74.7349,41.4258],[-74.9825,41.4965],[-75.0439,41.5751],[-75.0534,41.7525],[-75.1134,41.8407],[-75.263,41.8851],[-75.3411,41.9928],[-75.4771,41.9994],[-76.4622,41.9989],[-77.832,41.9985],[-79.0613,41.9988],[-79.7613,41.9988],[-79.762,42.2699],[-80.33,42.0362],[-80.5194,41.9775]]]},"properties":{"NAME":"Pennsylvania","STUSPS":"PA","STATEFP":"42"}}
]}