{"type":"FeatureCollection", "features": [
{"type":"Feature","geometry":{"type":"Point","coordinates":[-94.3088,46.3175]},"properties":{"NAME":"Minnesota","STUSPS":"MN","STATEFP":"27"}},
{"type":"Feature","geometry":{"type":"Point","coordinates":[-76.7324,38.9894]},"properties":{"NAME":"Maryland","STUSPS":"MD","STATEFP":"24"}},
{"type":"Feature","geometry":{"type":"Point","coordinates":[-99.3324,31.4622]},"properties":{"NAME":"Texas","STUSPS":"TX","STATEFP":"48"}},
{"type":"Feature","geometry":{"type":"Point","coordinates":[-83.4438,32.648]},"properties":{"NAME":"Georgia","STUSPS":"GA","STATEFP":"13"}},
{"type":"Feature","geometry":{"type":"Point","coordinates":[-78.8592,37.5086]},"properties":{"NAME":"Virginia","STUSPS":"VA","STATEFP":"51"}},
{"type":"Feature","geometry":{"type":"Point","coordinates":[-89.1972,40.0621]},"properties":{"NAME":"Illinois","STUSPS":"IL","STATEFP":"17"}},
{"type":"Feature","geometry":{"type":"Point","coordinates":[-90.0116,44.6333]},"properties":{"NAME":"Wisconsin","STUSPS":"WI","STATEFP":"55"}},
{"type":"Feature","geometry":{"type":"Point","coordinates":[-82.5034,28.6223]},"properties":{"NAME":"Florida","STUSPS":"FL","STATEFP":"12"}},
{"type":"Feature","geometry":{"type":"Point","coordinates":[-93.4956,42.0747]},"properties":{"NAME":"Iowa","STUSPS":"IA","STATEFP":"19"}},
{"type":"Feature","geometry":{"type":"Point","coordinates":[-92.4781,38.368]},"properties":{"NAME":"Missouri","STUSPS":"MO","STATEFP":"29"}},
{"type":"Feature","geometry":{"type":"Point","coordinates":[-84.6224,43.4869]},"properties":{"NAME":"Michigan","STUSPS":"MI","STATEFP":"26"}},
{"type":"Feature","geometry":{"type":"Point","coordinates":[-119.6109,37.2527]},"properties":{"NAME":"California","STUSPS":"CA","STATEFP":"06"}},
{"type":"Feature","geometry":{"type":"Point","coordinates":[-109.6424,47.0342]},"properties":{"NAME":"Montana","STUSPS":"MT","STATEFP":"30"}},
{"type":"Feature","geometry":{"type":"Point","coordinates":[-86.3381,35.8424]},"properties":{"NAME":"Tennessee","STUSPS":"TN","STATEFP":"47"}},
{"type":"Feature","geometry":{"type":"Point","coordinates":[-120.5566,43.936]},"properties":{"NAME":"Oregon","STUSPS":"OR","STATEFP":"41"}},
{"type":"Feature","geometry":{"type":"Point","coordinates":[-91.9495,31.0215]},"properties":{"NAME":"Louisiana","STUSPS":"LA","STATEFP":"22"}},
{"type":"Feature","geometry":{"type":"Point","coordinates":[-75.5016,42.94]},"properties":{"NAME":"New York","STUSPS":"NY","STATEFP":"36"}},
{"type":"Feature","geometry":{"type":"Point","coordinates":[-114.6574,44.3895]},"properties":{"NAME":"Idaho","STUSPS":"ID","STATEFP":"16"}},
{"type":"Feature","geometry":{"type":"Point","coordinates":[-77.0158,38.9043]},"properties":{"NAME":"District of Columbia","STUSPS":"DC","STATEFP":"11"}},
{"type":"Feature","geometry":{"type":"Point","coordinates":[-89.6605,32.7491]},"properties":{"NAME":"Mississippi","STUSPS":"MS","STATEFP":"28"}},
{"type":"Feature","geometry":{"type":"Point","coordinates":[-99.8083,41.527]},"properties":{"NAME":"Nebraska","STUSPS":"NE","STATEFP":"31"}},
{"type":"Feature","geometry":{"type":"Point","coordinates":[-105.5478,38.9984]},"properties":{"NAME":"Colorado","STUSPS":"CO","STATEFP":"08"}},
{"type":"Feature","geometry":{"type":"Point","coordinates":[-107.5512,42.9992]},"properties":{"NAME":"Wyoming","STUSPS":"WY","STATEFP":"56"}},
{"type":"Feature","geometry":{"type":"Point","coordinates":[-80.6117,38.6434]},"properties":{"NAME":"West Virginia","STUSPS":"WV","STATEFP":"54"}},
{"type":"Feature","geometry":{"type":"Point","coordinates":[-152.6236,64.4328]},"properties":{"NAME":"Alaska","STUSPS":"AK","STATEFP":"02"}},
{"type":"Feature","geometry":{"type":"Point","coordinates":[-75.5019,38.9996]},"properties":{"NAME":"Delaware","STUSPS":"DE","STATEFP":"10"}},
{"type":"Feature","geometry":{"type":"Point","coordinates":[-97.509,35.5842]},"properties":{"NAME":"Oklahoma","STUSPS":"OK","STATEFP":"40"}},
{"type":"Feature","geometry":{"type":"Point","coordinates":[-71.5756,43.6839]},"properties":{"NAME":"New Hampshire","STUSPS":"NH","STATEFP":"33"}},
{"type":"Feature","geometry":{"type":"Point","coordinates":[-155.5209,19.598]},"properties":{"NAME":"Hawaii","STUSPS":"HI","STATEFP":"15"}},
{"type":"Feature","geometry":{"type":"Point","coordinates":[-79.1808,35.5377]},"properties":{"NAME":"North Carolina","STUSPS":"NC","STATEFP":"37"}},
{"type":"Feature","geometry":{"type":"Point","coordinates":[-92.4342,34.8988]},"properties":{"NAME":"Arkansas","STUSPS":"AR","STATEFP":"05"}},
{"type":"Feature","geometry":{"type":"Point","coordinates":[-82.7904,40.2957]},"properties":{"NAME":"Ohio","STUSPS":"OH","STATEFP":"39"}},
{"type":"Feature","geometry":{"type":"Point","coordinates":[-86.2736,39.9091]},"properties":{"NAME":"Indiana","STUSPS":"IN","STATEFP":"18"}},
{"type":"Feature","geometry":{"type":"Point","coordinates":[-80.8928,33.9052]},"properties":{"NAME":"South Carolina","STUSPS":"SC","STATEFP":"45"}},
{"type":"Feature","geometry":{"type":"Point","coordinates":[-100.4685,47.446]},"properties":{"NAME":"North Dakota","STUSPS":"ND","STATEFP":"38"}},
{"type":"Feature","geometry":{"type":"Point","coordinates":[-120.4807,47.3836]},"properties":{"NAME":"Washington","STUSPS":"WA","STATEFP":"53"}},
{"type":"Feature","geometry":{"type":"Point","coordinates":[-85.2921,37.5255]},"properties":{"NAME":"Kentucky","STUSPS":"KY","STATEFP":"21"}},
{"type":"Feature","geometry":{"type":"Point","coordinates":[-100.2306,44.4358]},"properties":{"NAME":"South Dakota","STUSPS":"SD","STATEFP":"46"}},
{"type":"Feature","geometry":{"type":"Point","coordinates":[-69.2168,45.3429]},"properties":{"NAME":"Maine","STUSPS":"ME","STATEFP":"23"}},
{"type":"Feature","geometry":{"type":"Point","coordinates":[-71.8057,42.2646]},"properties":{"NAME":"Massachusetts","STUSPS":"MA","STATEFP":"25"}},
{"type":"Feature","geometry":{"type":"Point","coordinates":[-111.6779,39.3234]},"properties":{"NAME":"Utah","STUSPS":"UT","STATEFP":"49"}},
{"type":"Feature","geometry":{"type":"Point","coordinates":[-71.5297,41.6703]},"properties":{"NAME":"Rhode Island","STUSPS":"RI","STATEFP":"44"}},
{"type":"Feature","geometry":{"type":"Point","coordinates":[-111.6646,34.2926]},"properties":{"NAME":"Arizona","STUSPS":"AZ","STATEFP":"04"}},
{"type":"Feature","geometry":{"type":"Point","coordinates":[-116.6556,39.3558]},"properties":{"NAME":"Nevada","STUSPS":"NV","STATEFP":"32"}},
{"type":"Feature","geometry":{"type":"Point","coordinates":[-72.6586,44.0775]},"properties":{"NAME":"Vermont","STUSPS":"VT","STATEFP":"50"}},
{"type":"Feature","geometry":{"type":"Point","coordinates":[-106.1083,34.4213]},"properties":{"NAME":"New Mexico","STUSPS":"NM","STATEFP":"35"}},
{"type":"Feature","geometry":{"type":"Point","coordinates":[-98.3795,38.4849]},"properties":{"NAME":"Kansas","STUSPS":"KS","STATEFP":"20"}},
{"type":"Feature","geometry":{"type":"Point","coordinates":[-74.6642,40.1816]},"properties":{"NAME":"New Jersey","STUSPS":"NJ","STATEFP":"34"}},
{"type":"Feature","geometry":{"type":"Point","coordinates":[-72.7277,41.6178]},"properties":{"NAME":"Connecticut","STUSPS":"CT","STATEFP":"09"}},
{"type":"Feature","geometry":{"type":"Point","coordinates":[-86.8289,32.789]},"properties":{"NAME":"Alabama","STUSPS":"AL","STATEFP":"01"}},
{"type":"Feature","geometry":{"type":"Point","coordinates":[-77.7985,40.8736]},"properties":{"NAME":"Pennsylvania","STUSPS":"PA","STATEFP":"42"}}
]}